[
  [
    "北京市",
    []
  ],
  [
    "天津市",
    [
      {
        "name": "滨海新区（原塘沽区）",
        "zipCode": "300450",
        "telPrefix": "022"
      },
      {
        "name": "滨海新区（原汉沽区）",
        "zipCode": "300480",
        "telPrefix": "022"
      },
      {
        "name": "滨海新区（原大港区）",
        "zipCode": "300270",
        "telPrefix": "022"
      },
      {
        "name": "北辰区",
        "zipCode": "300400",
        "telPrefix": "022"
      },
      {
        "name": "集贤里街道",
        "zipCode": "300499",
        "telPrefix": "022"
      },
      {
        "name": "瑞景街道",
        "zipCode": "",
        "telPrefix": "022"
      },
      {
        "name": "青源街道",
        "zipCode": "300133",
        "telPrefix": "022"
      },
      {
        "name": "天穆镇",
        "zipCode": "300134",
        "telPrefix": "022"
      },
      {
        "name": "双街镇",
        "zipCode": "300403",
        "telPrefix": "022"
      },
      {
        "name": "青光镇",
        "zipCode": "300401",
        "telPrefix": "022"
      },
      {
        "name": "小淀镇",
        "zipCode": "300404",
        "telPrefix": "022"
      },
      {
        "name": "西堤头镇",
        "zipCode": "300408",
        "telPrefix": "022"
      },
      {
        "name": "科技园区南区",
        "zipCode": "",
        "telPrefix": "022"
      },
      {
        "name": "陆路港物流装备产业园",
        "zipCode": "",
        "telPrefix": "022"
      },
      {
        "name": "红旗农场",
        "zipCode": "",
        "telPrefix": "022"
      },
      {
        "name": "东丽区",
        "zipCode": "300300",
        "telPrefix": "022"
      },
      {
        "name": "张贵庄街道",
        "zipCode": "300399",
        "telPrefix": "022"
      },
      {
        "name": "万新街道",
        "zipCode": "",
        "telPrefix": "022"
      },
      {
        "name": "新立街道",
        "zipCode": "300399",
        "telPrefix": "022"
      },
      {
        "name": "金钟街道",
        "zipCode": "",
        "telPrefix": "022"
      },
      {
        "name": "金桥街道",
        "zipCode": "",
        "telPrefix": "022"
      },
      {
        "name": "东丽湖街道",
        "zipCode": "300309",
        "telPrefix": "022"
      },
      {
        "name": "航空物流区",
        "zipCode": "300308",
        "telPrefix": "022"
      },
      {
        "name": "经济技术开发区",
        "zipCode": "",
        "telPrefix": "022"
      },
      {
        "name": "航空新城",
        "zipCode": "",
        "telPrefix": "022"
      },
      {
        "name": "河北区",
        "zipCode": "300100",
        "telPrefix": "022"
      },
      {
        "name": "光复道街道",
        "zipCode": "300010",
        "telPrefix": "022"
      },
      {
        "name": "鸿顺里街道",
        "zipCode": "",
        "telPrefix": "022"
      },
      {
        "name": "铁东路街道",
        "zipCode": "300402",
        "telPrefix": "022"
      },
      {
        "name": "宁园街道",
        "zipCode": "300353",
        "telPrefix": "022"
      },
      {
        "name": "江都路街道",
        "zipCode": "300250",
        "telPrefix": "022"
      },
      {
        "name": "河东区",
        "zipCode": "300100",
        "telPrefix": "022"
      },
      {
        "name": "大直沽街道",
        "zipCode": "300170",
        "telPrefix": "022"
      },
      {
        "name": "富民路街道",
        "zipCode": "300182",
        "telPrefix": "022"
      },
      {
        "name": "春华街道",
        "zipCode": "300462",
        "telPrefix": "022"
      },
      {
        "name": "向阳楼街道",
        "zipCode": "300161",
        "telPrefix": "022"
      },
      {
        "name": "上杭路街道",
        "zipCode": "300161",
        "telPrefix": "022"
      },
      {
        "name": "鲁山道街道",
        "zipCode": "300252",
        "telPrefix": "022"
      },
      {
        "name": "河西区",
        "zipCode": "300200",
        "telPrefix": "022"
      },
      {
        "name": "下瓦房街道",
        "zipCode": "",
        "telPrefix": "022"
      },
      {
        "name": "挂甲寺街道",
        "zipCode": "",
        "telPrefix": "022"
      },
      {
        "name": "越秀路街道",
        "zipCode": "300201",
        "telPrefix": "022"
      },
      {
        "name": "天塔街道",
        "zipCode": "300381",
        "telPrefix": "022"
      },
      {
        "name": "陈塘庄街道",
        "zipCode": "",
        "telPrefix": "022"
      },
      {
        "name": "东海街道",
        "zipCode": "",
        "telPrefix": "022"
      },
      {
        "name": "太湖路街道",
        "zipCode": "300210",
        "telPrefix": "022"
      },
      {
        "name": "红桥区",
        "zipCode": "300100",
        "telPrefix": "022"
      },
      {
        "name": "西于庄街道",
        "zipCode": "300132",
        "telPrefix": "022"
      },
      {
        "name": "咸阳北路街道",
        "zipCode": "300131",
        "telPrefix": "022"
      },
      {
        "name": "西沽街道",
        "zipCode": "300132",
        "telPrefix": "022"
      },
      {
        "name": "邵公庄街道",
        "zipCode": "300122",
        "telPrefix": "022"
      },
      {
        "name": "铃铛阁街道",
        "zipCode": "",
        "telPrefix": "022"
      },
      {
        "name": "和苑街道",
        "zipCode": "",
        "telPrefix": "022"
      },
      {
        "name": "津南区",
        "zipCode": "300300",
        "telPrefix": "022"
      },
      {
        "name": "双新街道",
        "zipCode": "300499",
        "telPrefix": "022"
      },
      {
        "name": "咸水沽镇",
        "zipCode": "300350",
        "telPrefix": "022"
      },
      {
        "name": "小站镇",
        "zipCode": "300353",
        "telPrefix": "022"
      },
      {
        "name": "辛庄镇",
        "zipCode": "300354",
        "telPrefix": "022"
      },
      {
        "name": "八里台镇",
        "zipCode": "300357",
        "telPrefix": "022"
      },
      {
        "name": "铁路十八局",
        "zipCode": "",
        "telPrefix": "022"
      },
      {
        "name": "津南开发区东区",
        "zipCode": "",
        "telPrefix": "022"
      },
      {
        "name": "海河教育园区",
        "zipCode": "300350",
        "telPrefix": "022"
      },
      {
        "name": "津南国家农业园区",
        "zipCode": "",
        "telPrefix": "022"
      },
      {
        "name": "南开区",
        "zipCode": "300100",
        "telPrefix": "022"
      },
      {
        "name": "长虹街道",
        "zipCode": "300480",
        "telPrefix": "022"
      },
      {
        "name": "兴南街道",
        "zipCode": "",
        "telPrefix": "022"
      },
      {
        "name": "万兴街道",
        "zipCode": "",
        "telPrefix": "022"
      },
      {
        "name": "向阳路街道",
        "zipCode": "300113",
        "telPrefix": "022"
      },
      {
        "name": "王顶堤街道",
        "zipCode": "300190",
        "telPrefix": "022"
      },
      {
        "name": "体育中心街道",
        "zipCode": "",
        "telPrefix": "022"
      },
      {
        "name": "西青区",
        "zipCode": "300300",
        "telPrefix": "022"
      },
      {
        "name": "西营门街道",
        "zipCode": "300101",
        "telPrefix": "022"
      },
      {
        "name": "赤龙南街道",
        "zipCode": "300350",
        "telPrefix": "022"
      },
      {
        "name": "杨柳青镇",
        "zipCode": "300380",
        "telPrefix": "022"
      },
      {
        "name": "张家窝镇",
        "zipCode": "300380",
        "telPrefix": "022"
      },
      {
        "name": "大寺镇",
        "zipCode": "300385",
        "telPrefix": "022"
      },
      {
        "name": "开发区微电子小区",
        "zipCode": "",
        "telPrefix": "022"
      },
      {
        "name": "西青高校区",
        "zipCode": "300112",
        "telPrefix": "022"
      },
      {
        "name": "和平区",
        "zipCode": "300041",
        "telPrefix": "022"
      },
      {
        "name": "小白楼街道",
        "zipCode": "",
        "telPrefix": "022"
      },
      {
        "name": "新兴街道",
        "zipCode": "300462",
        "telPrefix": "022"
      },
      {
        "name": "南市街道",
        "zipCode": "300021",
        "telPrefix": "022"
      },
      {
        "name": "武清区",
        "zipCode": "301700",
        "telPrefix": "022"
      },
      {
        "name": "杨村街道",
        "zipCode": "301799",
        "telPrefix": "022"
      },
      {
        "name": "东蒲洼街道",
        "zipCode": "301723",
        "telPrefix": "022"
      },
      {
        "name": "徐官屯街道",
        "zipCode": "301722",
        "telPrefix": "022"
      },
      {
        "name": "梅厂镇",
        "zipCode": "301728",
        "telPrefix": "022"
      },
      {
        "name": "崔黄口镇",
        "zipCode": "301702",
        "telPrefix": "022"
      },
      {
        "name": "下伍旗镇",
        "zipCode": "301705",
        "telPrefix": "022"
      },
      {
        "name": "大孟庄镇",
        "zipCode": "301711",
        "telPrefix": "022"
      },
      {
        "name": "河西务镇",
        "zipCode": "301714",
        "telPrefix": "022"
      },
      {
        "name": "东马圈镇",
        "zipCode": "301717",
        "telPrefix": "022"
      },
      {
        "name": "石各庄镇",
        "zipCode": "301718",
        "telPrefix": "022"
      },
      {
        "name": "汊沽港镇",
        "zipCode": "301721",
        "telPrefix": "022"
      },
      {
        "name": "上马台镇",
        "zipCode": "301729",
        "telPrefix": "022"
      },
      {
        "name": "陈咀镇",
        "zipCode": "",
        "telPrefix": "022"
      },
      {
        "name": "曹子里镇",
        "zipCode": "301727",
        "telPrefix": "022"
      },
      {
        "name": "高村镇",
        "zipCode": "301737",
        "telPrefix": "022"
      },
      {
        "name": "开发区逸仙科学工业园",
        "zipCode": "",
        "telPrefix": "022"
      },
      {
        "name": "武清商务区",
        "zipCode": "",
        "telPrefix": "022"
      },
      {
        "name": "京津电子商务产业园",
        "zipCode": "",
        "telPrefix": "022"
      },
      {
        "name": "京津科技谷",
        "zipCode": "",
        "telPrefix": "022"
      },
      {
        "name": "武清农场",
        "zipCode": "301799",
        "telPrefix": "022"
      },
      {
        "name": "宝坻区",
        "zipCode": "301800",
        "telPrefix": "022"
      },
      {
        "name": "海滨街道",
        "zipCode": "301899",
        "telPrefix": "022"
      },
      {
        "name": "钰华街道",
        "zipCode": "301899",
        "telPrefix": "022"
      },
      {
        "name": "口东街道",
        "zipCode": "301822",
        "telPrefix": "022"
      },
      {
        "name": "潮阳街道",
        "zipCode": "301815",
        "telPrefix": "022"
      },
      {
        "name": "大口屯镇",
        "zipCode": "301815",
        "telPrefix": "022"
      },
      {
        "name": "方家庄镇",
        "zipCode": "301827",
        "telPrefix": "022"
      },
      {
        "name": "八门城镇",
        "zipCode": "301823",
        "telPrefix": "022"
      },
      {
        "name": "新安镇",
        "zipCode": "301825",
        "telPrefix": "022"
      },
      {
        "name": "新开口镇",
        "zipCode": "301815",
        "telPrefix": "022"
      },
      {
        "name": "牛道口镇",
        "zipCode": "301817",
        "telPrefix": "022"
      },
      {
        "name": "郝各庄镇",
        "zipCode": "301808",
        "telPrefix": "022"
      },
      {
        "name": "尔王庄镇",
        "zipCode": "301812",
        "telPrefix": "022"
      },
      {
        "name": "天宝工业园区",
        "zipCode": "301899",
        "telPrefix": "022"
      },
      {
        "name": "京津新城",
        "zipCode": "",
        "telPrefix": "022"
      },
      {
        "name": "黄庄农场",
        "zipCode": "301822",
        "telPrefix": "022"
      },
      {
        "name": "宁河区",
        "zipCode": "301500",
        "telPrefix": "022"
      },
      {
        "name": "芦台镇",
        "zipCode": "301599",
        "telPrefix": "022"
      },
      {
        "name": "苗庄镇",
        "zipCode": "301599",
        "telPrefix": "022"
      },
      {
        "name": "岳龙镇",
        "zipCode": "301502",
        "telPrefix": "022"
      },
      {
        "name": "潘庄镇",
        "zipCode": "301508",
        "telPrefix": "022"
      },
      {
        "name": "七里海镇",
        "zipCode": "301509",
        "telPrefix": "022"
      },
      {
        "name": "东棘坨镇",
        "zipCode": "301506",
        "telPrefix": "022"
      },
      {
        "name": "廉庄镇",
        "zipCode": "301599",
        "telPrefix": "022"
      },
      {
        "name": "经济开发区",
        "zipCode": "300280",
        "telPrefix": "022"
      },
      {
        "name": "未来科技城滨海高新区片区",
        "zipCode": "",
        "telPrefix": "022"
      },
      {
        "name": "未来科技城宁河片区潘庄工业区组团",
        "zipCode": "301508",
        "telPrefix": "022"
      },
      {
        "name": "潘庄农场",
        "zipCode": "301508",
        "telPrefix": "022"
      },
      {
        "name": "静海区",
        "zipCode": "301600",
        "telPrefix": "022"
      },
      {
        "name": "静海镇",
        "zipCode": "300459",
        "telPrefix": "022"
      },
      {
        "name": "独流镇",
        "zipCode": "301602",
        "telPrefix": "022"
      },
      {
        "name": "台头镇",
        "zipCode": "301602",
        "telPrefix": "022"
      },
      {
        "name": "陈官屯镇",
        "zipCode": "301604",
        "telPrefix": "022"
      },
      {
        "name": "大邱庄镇",
        "zipCode": "301606",
        "telPrefix": "022"
      },
      {
        "name": "梁头镇",
        "zipCode": "301699",
        "telPrefix": "022"
      },
      {
        "name": "双塘镇",
        "zipCode": "301699",
        "telPrefix": "022"
      },
      {
        "name": "沿庄镇",
        "zipCode": "301605",
        "telPrefix": "022"
      },
      {
        "name": "良王庄乡",
        "zipCode": "301601",
        "telPrefix": "022"
      },
      {
        "name": "静海经济开发区",
        "zipCode": "301602",
        "telPrefix": "022"
      },
      {
        "name": "团泊新城",
        "zipCode": "",
        "telPrefix": "022"
      },
      {
        "name": "蓟州区",
        "zipCode": "301900",
        "telPrefix": "022"
      },
      {
        "name": "文昌街道",
        "zipCode": "301999",
        "telPrefix": "022"
      },
      {
        "name": "洇溜镇",
        "zipCode": "301914",
        "telPrefix": "022"
      },
      {
        "name": "马伸桥镇",
        "zipCode": "301909",
        "telPrefix": "022"
      },
      {
        "name": "邦均镇",
        "zipCode": "301901",
        "telPrefix": "022"
      },
      {
        "name": "尤古庄镇",
        "zipCode": "301902",
        "telPrefix": "022"
      },
      {
        "name": "下仓镇",
        "zipCode": "301905",
        "telPrefix": "022"
      },
      {
        "name": "白涧镇",
        "zipCode": "301926",
        "telPrefix": "022"
      },
      {
        "name": "侯家营镇",
        "zipCode": "301904",
        "telPrefix": "022"
      },
      {
        "name": "东施古镇",
        "zipCode": "301934",
        "telPrefix": "022"
      },
      {
        "name": "杨津庄镇",
        "zipCode": "301906",
        "telPrefix": "022"
      },
      {
        "name": "西龙虎峪镇",
        "zipCode": "301912",
        "telPrefix": "022"
      },
      {
        "name": "东二营镇",
        "zipCode": "301924",
        "telPrefix": "022"
      },
      {
        "name": "礼明庄镇",
        "zipCode": "301907",
        "telPrefix": "022"
      },
      {
        "name": "孙各庄乡",
        "zipCode": "301939",
        "telPrefix": "022"
      },
      {
        "name": "天津市",
        "zipCode": "300000",
        "telPrefix": "022"
      },
      {
        "name": "滨海新区",
        "zipCode": "300450",
        "telPrefix": "022"
      },
      {
        "name": "杭州道街道",
        "zipCode": "300451",
        "telPrefix": "022"
      },
      {
        "name": "大沽街道",
        "zipCode": "301806",
        "telPrefix": "022"
      },
      {
        "name": "北塘街道",
        "zipCode": "300453",
        "telPrefix": "022"
      },
      {
        "name": "新港街道",
        "zipCode": "300461",
        "telPrefix": "022"
      },
      {
        "name": "泰达街道",
        "zipCode": "300457",
        "telPrefix": "022"
      },
      {
        "name": "寨上街道",
        "zipCode": "",
        "telPrefix": "022"
      },
      {
        "name": "大港街道",
        "zipCode": "300270",
        "telPrefix": "022"
      },
      {
        "name": "海滨街道",
        "zipCode": "300456",
        "telPrefix": "022"
      },
      {
        "name": "杨家泊镇",
        "zipCode": "300480",
        "telPrefix": "022"
      },
      {
        "name": "小王庄镇",
        "zipCode": "300273",
        "telPrefix": "022"
      },
      {
        "name": "经济技术开发区",
        "zipCode": "300280",
        "telPrefix": "022"
      },
      {
        "name": "高新技术产业开发区",
        "zipCode": "",
        "telPrefix": "022"
      },
      {
        "name": "中新天津生态城",
        "zipCode": "",
        "telPrefix": "022"
      }
    ]
  ],
  [
    "河北省",
    []
  ],
  [
    "山西省",
    [
      {
        "name": "朔州市",
        "zipCode": "036000",
        "telPrefix": "0349"
      },
      {
        "name": "平鲁区",
        "zipCode": "036800",
        "telPrefix": "0349"
      },
      {
        "name": "应县",
        "zipCode": "037600",
        "telPrefix": "0349"
      },
      {
        "name": "怀仁县",
        "zipCode": "038300",
        "telPrefix": "0349"
      },
      {
        "name": "忻州市",
        "zipCode": "034000",
        "telPrefix": "0350"
      },
      {
        "name": "忻府区",
        "zipCode": "034000",
        "telPrefix": "0350"
      },
      {
        "name": "五台县",
        "zipCode": "035500",
        "telPrefix": "0350"
      },
      {
        "name": "繁峙县",
        "zipCode": "034300",
        "telPrefix": "0350"
      },
      {
        "name": "神池县",
        "zipCode": "036100",
        "telPrefix": "0350"
      },
      {
        "name": "岢岚县",
        "zipCode": "036300",
        "telPrefix": "0350"
      },
      {
        "name": "保德县",
        "zipCode": "036600",
        "telPrefix": "0350"
      },
      {
        "name": "原平市",
        "zipCode": "034100",
        "telPrefix": "0350"
      },
      {
        "name": "太原市",
        "zipCode": "030000",
        "telPrefix": "0351"
      },
      {
        "name": "小店区",
        "zipCode": "030000",
        "telPrefix": "0351"
      },
      {
        "name": "杏花岭区",
        "zipCode": "030000",
        "telPrefix": "0351"
      },
      {
        "name": "万柏林区",
        "zipCode": "030000",
        "telPrefix": "0351"
      },
      {
        "name": "清徐县",
        "zipCode": "030400",
        "telPrefix": "0351"
      },
      {
        "name": "娄烦县",
        "zipCode": "030300",
        "telPrefix": "0351"
      },
      {
        "name": "大同市",
        "zipCode": "037000",
        "telPrefix": "0352"
      },
      {
        "name": "城区",
        "zipCode": "037000",
        "telPrefix": "0352"
      },
      {
        "name": "南郊区",
        "zipCode": "037000",
        "telPrefix": "0352"
      },
      {
        "name": "阳高县",
        "zipCode": "038100",
        "telPrefix": "0352"
      },
      {
        "name": "广灵县",
        "zipCode": "037500",
        "telPrefix": "0352"
      },
      {
        "name": "浑源县",
        "zipCode": "037400",
        "telPrefix": "0352"
      },
      {
        "name": "大同县",
        "zipCode": "037300",
        "telPrefix": "0352"
      },
      {
        "name": "阳泉市",
        "zipCode": "045000",
        "telPrefix": "0353"
      },
      {
        "name": "城区",
        "zipCode": "045000",
        "telPrefix": "0353"
      },
      {
        "name": "郊区",
        "zipCode": "045000",
        "telPrefix": "0353"
      },
      {
        "name": "盂县",
        "zipCode": "045100",
        "telPrefix": "0353"
      },
      {
        "name": "晋中市",
        "zipCode": "030600",
        "telPrefix": "0354"
      },
      {
        "name": "灵石县",
        "zipCode": "031300",
        "telPrefix": "0354"
      },
      {
        "name": "榆次区",
        "zipCode": "030600",
        "telPrefix": "0354"
      },
      {
        "name": "左权县",
        "zipCode": "032600",
        "telPrefix": "0354"
      },
      {
        "name": "昔阳县",
        "zipCode": "045300",
        "telPrefix": "0354"
      },
      {
        "name": "太谷县",
        "zipCode": "030800",
        "telPrefix": "0354"
      },
      {
        "name": "平遥县",
        "zipCode": "031100",
        "telPrefix": "0354"
      },
      {
        "name": "长治市",
        "zipCode": "046000",
        "telPrefix": "0355"
      },
      {
        "name": "平顺县",
        "zipCode": "047400",
        "telPrefix": "0355"
      },
      {
        "name": "壶关县",
        "zipCode": "047300",
        "telPrefix": "0355"
      },
      {
        "name": "武乡县",
        "zipCode": "046300",
        "telPrefix": "0355"
      },
      {
        "name": "沁源县",
        "zipCode": "046500",
        "telPrefix": "0355"
      },
      {
        "name": "城区",
        "zipCode": "046000",
        "telPrefix": "0355"
      },
      {
        "name": "长治县",
        "zipCode": "047100",
        "telPrefix": "0355"
      },
      {
        "name": "屯留县",
        "zipCode": "046100",
        "telPrefix": "0355"
      },
      {
        "name": "晋城市",
        "zipCode": "048000",
        "telPrefix": "0356"
      },
      {
        "name": "陵川县",
        "zipCode": "048300",
        "telPrefix": "0356"
      },
      {
        "name": "城区",
        "zipCode": "048000",
        "telPrefix": "0356"
      },
      {
        "name": "阳城县",
        "zipCode": "048100",
        "telPrefix": "0356"
      },
      {
        "name": "临汾市",
        "zipCode": "041000",
        "telPrefix": "0357"
      },
      {
        "name": "尧都区",
        "zipCode": "041000",
        "telPrefix": "0357"
      },
      {
        "name": "翼城县",
        "zipCode": "043500",
        "telPrefix": "0357"
      },
      {
        "name": "古县",
        "zipCode": "042400",
        "telPrefix": "0357"
      },
      {
        "name": "浮山县",
        "zipCode": "042600",
        "telPrefix": "0357"
      },
      {
        "name": "乡宁县",
        "zipCode": "042100",
        "telPrefix": "0357"
      },
      {
        "name": "隰县",
        "zipCode": "041300",
        "telPrefix": "0357"
      },
      {
        "name": "蒲县",
        "zipCode": "041200",
        "telPrefix": "0357"
      },
      {
        "name": "侯马市",
        "zipCode": "043000",
        "telPrefix": "0357"
      },
      {
        "name": "候马",
        "zipCode": "043000",
        "telPrefix": "0357"
      },
      {
        "name": "吕梁市",
        "zipCode": "033000",
        "telPrefix": "0358"
      },
      {
        "name": "离石区",
        "zipCode": "033000",
        "telPrefix": "0358"
      },
      {
        "name": "交城县",
        "zipCode": "030500",
        "telPrefix": "0358"
      },
      {
        "name": "柳林县",
        "zipCode": "033300",
        "telPrefix": "0358"
      },
      {
        "name": "方山县",
        "zipCode": "033100",
        "telPrefix": "0358"
      },
      {
        "name": "交口县",
        "zipCode": "032400",
        "telPrefix": "0358"
      },
      {
        "name": "汾阳市",
        "zipCode": "032200",
        "telPrefix": "0358"
      },
      {
        "name": "岚县",
        "zipCode": "033500",
        "telPrefix": "0358"
      },
      {
        "name": "运城市",
        "zipCode": "044000",
        "telPrefix": "0359"
      },
      {
        "name": "盐湖区",
        "zipCode": "044000",
        "telPrefix": "0359"
      },
      {
        "name": "万荣县",
        "zipCode": "044200",
        "telPrefix": "0359"
      },
      {
        "name": "稷山县",
        "zipCode": "043200",
        "telPrefix": "0359"
      },
      {
        "name": "绛县",
        "zipCode": "043600",
        "telPrefix": "0359"
      },
      {
        "name": "夏县",
        "zipCode": "044400",
        "telPrefix": "0359"
      },
      {
        "name": "芮城县",
        "zipCode": "044600",
        "telPrefix": "0359"
      },
      {
        "name": "河津市",
        "zipCode": "043300",
        "telPrefix": "0359"
      }
    ]
  ],
  [
    "内蒙古自治区",
    [
      {
        "name": "锡林郭勒盟",
        "zipCode": "026000",
        "telPrefix": "0479"
      },
      {
        "name": "锡林浩特市",
        "zipCode": "026000",
        "telPrefix": "0479"
      },
      {
        "name": "多伦县",
        "zipCode": "027300",
        "telPrefix": "0479"
      },
      {
        "name": "苏尼特右旗",
        "zipCode": "011200",
        "telPrefix": "0479"
      },
      {
        "name": "西乌珠穆沁旗",
        "zipCode": "026200",
        "telPrefix": "0479"
      },
      {
        "name": "正镶白旗",
        "zipCode": "013800",
        "telPrefix": "0479"
      },
      {
        "name": "二连浩特市",
        "zipCode": "011100",
        "telPrefix": "0479"
      },
      {
        "name": "阿马嗄旗",
        "zipCode": "026100",
        "telPrefix": "0479"
      },
      {
        "name": "兴安盟",
        "zipCode": "137400",
        "telPrefix": "0482"
      },
      {
        "name": "科尔沁右翼中旗",
        "zipCode": "029400",
        "telPrefix": "0482"
      },
      {
        "name": "突泉县",
        "zipCode": "137500",
        "telPrefix": "0482"
      },
      {
        "name": "科右中旗",
        "zipCode": "029400",
        "telPrefix": "0482"
      },
      {
        "name": "科尔沁右翼前旗",
        "zipCode": "137700",
        "telPrefix": "0482"
      },
      {
        "name": "阿拉善盟",
        "zipCode": "750306",
        "telPrefix": "0483"
      },
      {
        "name": "阿拉善左旗",
        "zipCode": "750300",
        "telPrefix": "0483"
      },
      {
        "name": "额济纳旗",
        "zipCode": "735400",
        "telPrefix": "0483"
      },
      {
        "name": "呼伦贝尔市",
        "zipCode": "021000",
        "telPrefix": "0470"
      },
      {
        "name": "海拉尔区",
        "zipCode": "021000",
        "telPrefix": "0470"
      },
      {
        "name": "鄂温克自治旗",
        "zipCode": "021100",
        "telPrefix": "0470"
      },
      {
        "name": "新巴尔虎左旗",
        "zipCode": "021200",
        "telPrefix": "0470"
      },
      {
        "name": "满洲里市",
        "zipCode": "021400",
        "telPrefix": "0470"
      },
      {
        "name": "额尔古纳市",
        "zipCode": "022200",
        "telPrefix": "0470"
      },
      {
        "name": "莫力达瓦达斡尔族自治旗",
        "zipCode": "162800",
        "telPrefix": "0470"
      },
      {
        "name": "扎兰屯市",
        "zipCode": "162600",
        "telPrefix": "0470"
      },
      {
        "name": "莫力达瓦旗",
        "zipCode": "162800",
        "telPrefix": "0470"
      },
      {
        "name": "呼和浩特市",
        "zipCode": "010000",
        "telPrefix": "0471"
      },
      {
        "name": "新城区",
        "zipCode": "010000",
        "telPrefix": "0471"
      },
      {
        "name": "玉泉区",
        "zipCode": "010000",
        "telPrefix": "0471"
      },
      {
        "name": "托克托县",
        "zipCode": "010200",
        "telPrefix": "0471"
      },
      {
        "name": "清水河县",
        "zipCode": "011600",
        "telPrefix": "0471"
      },
      {
        "name": "赛罕区",
        "zipCode": "010000",
        "telPrefix": "0471"
      },
      {
        "name": "包头市",
        "zipCode": "014000",
        "telPrefix": "0472"
      },
      {
        "name": "东河区",
        "zipCode": "014000",
        "telPrefix": "0472"
      },
      {
        "name": "白云矿区",
        "zipCode": "014000",
        "telPrefix": "0472"
      },
      {
        "name": "固阳县",
        "zipCode": "014200",
        "telPrefix": "0472"
      },
      {
        "name": "白云鄂博矿区",
        "zipCode": "014000",
        "telPrefix": "0472"
      },
      {
        "name": "石拐区",
        "zipCode": "014000",
        "telPrefix": "0472"
      },
      {
        "name": "白云鄂博",
        "zipCode": "014000",
        "telPrefix": "0472"
      },
      {
        "name": "乌海市",
        "zipCode": "016000",
        "telPrefix": "0473"
      },
      {
        "name": "海勃湾区",
        "zipCode": "016000",
        "telPrefix": "0473"
      },
      {
        "name": "乌达区",
        "zipCode": "016000",
        "telPrefix": "0473"
      },
      {
        "name": "乌兰察布市",
        "zipCode": "012000",
        "telPrefix": "0474"
      },
      {
        "name": "集宁区",
        "zipCode": "012000",
        "telPrefix": "0474"
      },
      {
        "name": "商都县",
        "zipCode": "013400",
        "telPrefix": "0474"
      },
      {
        "name": "察哈尔右翼中旗",
        "zipCode": "013500",
        "telPrefix": "0474"
      },
      {
        "name": "四子王旗",
        "zipCode": "011800",
        "telPrefix": "0474"
      },
      {
        "name": "化德县",
        "zipCode": "013300",
        "telPrefix": "0474"
      },
      {
        "name": "兴和县",
        "zipCode": "013600",
        "telPrefix": "0474"
      },
      {
        "name": "通辽市",
        "zipCode": "028000",
        "telPrefix": "0475"
      },
      {
        "name": "科尔沁区",
        "zipCode": "028000",
        "telPrefix": "0475"
      },
      {
        "name": "科尔沁左翼后旗",
        "zipCode": "028100",
        "telPrefix": "0475"
      },
      {
        "name": "库伦旗",
        "zipCode": "028200",
        "telPrefix": "0475"
      },
      {
        "name": "扎鲁特旗",
        "zipCode": "029100",
        "telPrefix": "0475"
      },
      {
        "name": "赤峰市",
        "zipCode": "024000",
        "telPrefix": "0476"
      },
      {
        "name": "敖汉旗",
        "zipCode": "024300",
        "telPrefix": "0476"
      },
      {
        "name": "元宝山区",
        "zipCode": "024000",
        "telPrefix": "0476"
      },
      {
        "name": "阿鲁科尔沁旗",
        "zipCode": "025500",
        "telPrefix": "0476"
      },
      {
        "name": "喀喇沁旗",
        "zipCode": "024400",
        "telPrefix": "0476"
      },
      {
        "name": "巴林右旗",
        "zipCode": "025100",
        "telPrefix": "0476"
      },
      {
        "name": "克什克腾旗",
        "zipCode": "025300",
        "telPrefix": "0476"
      },
      {
        "name": "鄂尔多斯市",
        "zipCode": "017000",
        "telPrefix": "0477"
      },
      {
        "name": "东胜区",
        "zipCode": "017000",
        "telPrefix": "0477"
      },
      {
        "name": "准格尔旗",
        "zipCode": "017100",
        "telPrefix": "0477"
      },
      {
        "name": "鄂托克旗",
        "zipCode": "016100",
        "telPrefix": "0477"
      },
      {
        "name": "杭锦旗",
        "zipCode": "017400",
        "telPrefix": "0477"
      },
      {
        "name": "康巴什区",
        "zipCode": "0477",
        "telPrefix": "017020"
      },
      {
        "name": "巴彦淖尔市",
        "zipCode": "015000",
        "telPrefix": "0478"
      },
      {
        "name": "杭锦后旗",
        "zipCode": "015400",
        "telPrefix": "0478"
      },
      {
        "name": "五原县",
        "zipCode": "015100",
        "telPrefix": "0478"
      },
      {
        "name": "乌拉特后旗",
        "zipCode": "015500",
        "telPrefix": "0478"
      },
      {
        "name": "乌拉特前旗",
        "zipCode": "014400",
        "telPrefix": "0478"
      }
    ]
  ],
  [
    "辽宁省",
    [
      {
        "name": "沈阳市",
        "zipCode": "110000",
        "telPrefix": "024"
      },
      {
        "name": "和平区",
        "zipCode": "110000",
        "telPrefix": "024"
      },
      {
        "name": "大东区",
        "zipCode": "110000",
        "telPrefix": "024"
      },
      {
        "name": "苏家屯区",
        "zipCode": "110100",
        "telPrefix": "024"
      },
      {
        "name": "康平县",
        "zipCode": "110500",
        "telPrefix": "024"
      },
      {
        "name": "新民市",
        "zipCode": "110300",
        "telPrefix": "024"
      },
      {
        "name": "沈北新区",
        "zipCode": "110100",
        "telPrefix": "024"
      },
      {
        "name": "于洪区",
        "zipCode": "110100",
        "telPrefix": "024"
      },
      {
        "name": "抚顺市",
        "zipCode": "113000",
        "telPrefix": "024"
      },
      {
        "name": "新抚区",
        "zipCode": "113000",
        "telPrefix": "024"
      },
      {
        "name": "望花区",
        "zipCode": "113000",
        "telPrefix": "024"
      },
      {
        "name": "抚顺县",
        "zipCode": "113100",
        "telPrefix": "024"
      },
      {
        "name": "清原满族自治县",
        "zipCode": "113300",
        "telPrefix": "024"
      },
      {
        "name": "铁岭市",
        "zipCode": "112000",
        "telPrefix": "024"
      },
      {
        "name": "铁法",
        "zipCode": "112700",
        "telPrefix": "024"
      },
      {
        "name": "开原市",
        "zipCode": "112300",
        "telPrefix": "024"
      },
      {
        "name": "西丰县",
        "zipCode": "112400",
        "telPrefix": "024"
      },
      {
        "name": "清河区",
        "zipCode": "112000",
        "telPrefix": "024"
      },
      {
        "name": "大连市",
        "zipCode": "116000",
        "telPrefix": "0411"
      },
      {
        "name": "中山区",
        "zipCode": "116000",
        "telPrefix": "0411"
      },
      {
        "name": "沙河口区",
        "zipCode": "116000",
        "telPrefix": "0411"
      },
      {
        "name": "旅顺口区",
        "zipCode": "116000",
        "telPrefix": "0411"
      },
      {
        "name": "瓦房店市",
        "zipCode": "116300",
        "telPrefix": "0411"
      },
      {
        "name": "庄河市",
        "zipCode": "116400",
        "telPrefix": "0411"
      },
      {
        "name": "金县",
        "zipCode": "116100",
        "telPrefix": "0411"
      },
      {
        "name": "鞍山市",
        "zipCode": "114000",
        "telPrefix": "0412"
      },
      {
        "name": "铁东区",
        "zipCode": "114000",
        "telPrefix": "0412"
      },
      {
        "name": "立山区",
        "zipCode": "114000",
        "telPrefix": "0412"
      },
      {
        "name": "台安县",
        "zipCode": "114100",
        "telPrefix": "0412"
      },
      {
        "name": "岫岩满族自治县",
        "zipCode": "114300",
        "telPrefix": "0412"
      },
      {
        "name": "本溪市",
        "zipCode": "117000",
        "telPrefix": "024"
      },
      {
        "name": "平山区",
        "zipCode": "117000",
        "telPrefix": "024"
      },
      {
        "name": "明山区",
        "zipCode": "117000",
        "telPrefix": "024"
      },
      {
        "name": "本溪满族自治县",
        "zipCode": "117100",
        "telPrefix": "024"
      },
      {
        "name": "本溪县",
        "zipCode": "117100",
        "telPrefix": "024"
      },
      {
        "name": "丹东市",
        "zipCode": "118000",
        "telPrefix": "0415"
      },
      {
        "name": "元宝区",
        "zipCode": "118000",
        "telPrefix": "0415"
      },
      {
        "name": "振安区",
        "zipCode": "118000",
        "telPrefix": "0415"
      },
      {
        "name": "东港市",
        "zipCode": "118300",
        "telPrefix": "0415"
      },
      {
        "name": "锦州市",
        "zipCode": "121000",
        "telPrefix": "0416"
      },
      {
        "name": "古塔区",
        "zipCode": "121000",
        "telPrefix": "0416"
      },
      {
        "name": "太和区",
        "zipCode": "121000",
        "telPrefix": "0416"
      },
      {
        "name": "义县",
        "zipCode": "121100",
        "telPrefix": "0416"
      },
      {
        "name": "北镇市",
        "zipCode": "121300",
        "telPrefix": "0416"
      },
      {
        "name": "营口市",
        "zipCode": "115000",
        "telPrefix": "0417"
      },
      {
        "name": "站前区",
        "zipCode": "115000",
        "telPrefix": "0417"
      },
      {
        "name": "鲅鱼圈区",
        "zipCode": "115000",
        "telPrefix": "0417"
      },
      {
        "name": "盖州市",
        "zipCode": "115200",
        "telPrefix": "0417"
      },
      {
        "name": "阜新市",
        "zipCode": "123000",
        "telPrefix": "0418"
      },
      {
        "name": "海州区",
        "zipCode": "123000",
        "telPrefix": "0418"
      },
      {
        "name": "太平区",
        "zipCode": "123000",
        "telPrefix": "0418"
      },
      {
        "name": "细河区",
        "zipCode": "123000",
        "telPrefix": "0418"
      },
      {
        "name": "彰武县",
        "zipCode": "123200",
        "telPrefix": "0418"
      },
      {
        "name": "辽阳市",
        "zipCode": "111000",
        "telPrefix": "0419"
      },
      {
        "name": "白塔区",
        "zipCode": "111000",
        "telPrefix": "0419"
      },
      {
        "name": "宏伟区",
        "zipCode": "111000",
        "telPrefix": "0419"
      },
      {
        "name": "太子河区",
        "zipCode": "111000",
        "telPrefix": "0419"
      },
      {
        "name": "灯塔市",
        "zipCode": "111300",
        "telPrefix": "0419"
      },
      {
        "name": "朝阳市",
        "zipCode": "122000",
        "telPrefix": "0421"
      },
      {
        "name": "双塔区",
        "zipCode": "122000",
        "telPrefix": "0421"
      },
      {
        "name": "建平县",
        "zipCode": "122400",
        "telPrefix": "0421"
      },
      {
        "name": "北票市",
        "zipCode": "122100",
        "telPrefix": "0421"
      },
      {
        "name": "朝阳县",
        "zipCode": "122600",
        "telPrefix": "0421"
      },
      {
        "name": "盘锦市",
        "zipCode": "124000",
        "telPrefix": "0427"
      },
      {
        "name": "双台子区",
        "zipCode": "124000",
        "telPrefix": "0427"
      },
      {
        "name": "大洼区",
        "zipCode": "124200",
        "telPrefix": "0427"
      },
      {
        "name": "葫芦岛市",
        "zipCode": "125000",
        "telPrefix": "0429"
      },
      {
        "name": "连山区",
        "zipCode": "125000",
        "telPrefix": "0429"
      },
      {
        "name": "南票区",
        "zipCode": "125000",
        "telPrefix": "0429"
      },
      {
        "name": "建昌县",
        "zipCode": "125300",
        "telPrefix": "0429"
      }
    ]
  ],
  [
    "吉林省",
    []
  ],
  [
    "黑龙江省",
    [
      {
        "name": "大兴安岭地区",
        "zipCode": "165000",
        "telPrefix": "0457"
      },
      {
        "name": "呼玛县",
        "zipCode": "165100",
        "telPrefix": "0457"
      },
      {
        "name": "漠河县",
        "zipCode": "165300",
        "telPrefix": "0457"
      },
      {
        "name": "松岭区",
        "zipCode": "165000",
        "telPrefix": "0457"
      },
      {
        "name": "加格达奇",
        "zipCode": "165000",
        "telPrefix": "0457"
      },
      {
        "name": "伊春市",
        "zipCode": "153000",
        "telPrefix": "0458"
      },
      {
        "name": "伊春区",
        "zipCode": "153000",
        "telPrefix": "0458"
      },
      {
        "name": "西林区",
        "zipCode": "153000",
        "telPrefix": "0458"
      },
      {
        "name": "新青区",
        "zipCode": "153000",
        "telPrefix": "0458"
      },
      {
        "name": "金山屯区",
        "zipCode": "153000",
        "telPrefix": "0458"
      },
      {
        "name": "乌马河区",
        "zipCode": "153000",
        "telPrefix": "0458"
      },
      {
        "name": "乌伊岭区",
        "zipCode": "153000",
        "telPrefix": "0458"
      },
      {
        "name": "上甘岭区",
        "zipCode": "153000",
        "telPrefix": "0458"
      },
      {
        "name": "铁力市",
        "zipCode": "152500",
        "telPrefix": "0458"
      },
      {
        "name": "南岔区",
        "zipCode": "153100",
        "telPrefix": "0458"
      },
      {
        "name": "大庆市",
        "zipCode": "163000",
        "telPrefix": "0459"
      },
      {
        "name": "林甸县",
        "zipCode": "166300",
        "telPrefix": "0459"
      },
      {
        "name": "肇州县",
        "zipCode": "166400",
        "telPrefix": "0459"
      },
      {
        "name": "大同区",
        "zipCode": "163500",
        "telPrefix": "0459"
      },
      {
        "name": "龙凤区",
        "zipCode": "163700",
        "telPrefix": "0459"
      },
      {
        "name": "萨尔图区",
        "zipCode": "163300",
        "telPrefix": "0459"
      },
      {
        "name": "七台河市",
        "zipCode": "154600",
        "telPrefix": "0464"
      },
      {
        "name": "新兴区",
        "zipCode": "154600",
        "telPrefix": "0464"
      },
      {
        "name": "茄子河区",
        "zipCode": "154600",
        "telPrefix": "0464"
      },
      {
        "name": "鸡西市",
        "zipCode": "158100",
        "telPrefix": "0467"
      },
      {
        "name": "鸡冠区",
        "zipCode": "158100",
        "telPrefix": "0467"
      },
      {
        "name": "滴道区",
        "zipCode": "158100",
        "telPrefix": "0467"
      },
      {
        "name": "城子河区",
        "zipCode": "158100",
        "telPrefix": "0467"
      },
      {
        "name": "鸡东县",
        "zipCode": "158200",
        "telPrefix": "0467"
      },
      {
        "name": "密山市",
        "zipCode": "158300",
        "telPrefix": "0467"
      },
      {
        "name": "鹤岗市",
        "zipCode": "154100",
        "telPrefix": "0468"
      },
      {
        "name": "向阳区",
        "zipCode": "154100",
        "telPrefix": "0468"
      },
      {
        "name": "南山区",
        "zipCode": "154100",
        "telPrefix": "0468"
      },
      {
        "name": "东山区",
        "zipCode": "154100",
        "telPrefix": "0468"
      },
      {
        "name": "萝北县",
        "zipCode": "154200",
        "telPrefix": "0468"
      },
      {
        "name": "双鸭山市",
        "zipCode": "155100",
        "telPrefix": "0469"
      },
      {
        "name": "尖山区",
        "zipCode": "155100",
        "telPrefix": "0469"
      },
      {
        "name": "四方台区",
        "zipCode": "155100",
        "telPrefix": "0469"
      },
      {
        "name": "集贤县",
        "zipCode": "155900",
        "telPrefix": "0469"
      },
      {
        "name": "宝清县",
        "zipCode": "155600",
        "telPrefix": "0469"
      },
      {
        "name": "哈尔滨市",
        "zipCode": "150000",
        "telPrefix": "0451"
      },
      {
        "name": "道里区",
        "zipCode": "150000",
        "telPrefix": "0451"
      },
      {
        "name": "道外区",
        "zipCode": "150000",
        "telPrefix": "0451"
      },
      {
        "name": "动力区",
        "zipCode": "150000",
        "telPrefix": "0451"
      },
      {
        "name": "松北区",
        "zipCode": "150000",
        "telPrefix": "0451"
      },
      {
        "name": "依兰县",
        "zipCode": "154800",
        "telPrefix": "0451"
      },
      {
        "name": "宾县",
        "zipCode": "150400",
        "telPrefix": "0451"
      },
      {
        "name": "木兰县",
        "zipCode": "151900",
        "telPrefix": "0451"
      },
      {
        "name": "延寿县",
        "zipCode": "150700",
        "telPrefix": "0451"
      },
      {
        "name": "尚志市",
        "zipCode": "150600",
        "telPrefix": "0451"
      },
      {
        "name": "阿城区",
        "zipCode": "150300",
        "telPrefix": "0451"
      },
      {
        "name": "齐齐哈尔市",
        "zipCode": "161000",
        "telPrefix": "0452"
      },
      {
        "name": "龙沙区",
        "zipCode": "161000",
        "telPrefix": "0452"
      },
      {
        "name": "铁锋区",
        "zipCode": "161000",
        "telPrefix": "0452"
      },
      {
        "name": "富拉尔基区",
        "zipCode": "161000",
        "telPrefix": "0452"
      },
      {
        "name": "梅里斯达斡尔族区",
        "zipCode": "161000",
        "telPrefix": "0452"
      },
      {
        "name": "依安县",
        "zipCode": "161500",
        "telPrefix": "0452"
      },
      {
        "name": "甘南县",
        "zipCode": "162100",
        "telPrefix": "0452"
      },
      {
        "name": "克山县",
        "zipCode": "161600",
        "telPrefix": "0452"
      },
      {
        "name": "拜泉县",
        "zipCode": "164700",
        "telPrefix": "0452"
      },
      {
        "name": "牡丹江市",
        "zipCode": "157000",
        "telPrefix": "0453"
      },
      {
        "name": "东安区",
        "zipCode": "157000",
        "telPrefix": "0453"
      },
      {
        "name": "爱民区",
        "zipCode": "157000",
        "telPrefix": "0453"
      },
      {
        "name": "东宁市",
        "zipCode": "157200",
        "telPrefix": "0453"
      },
      {
        "name": "绥芬河市",
        "zipCode": "157300",
        "telPrefix": "0453"
      },
      {
        "name": "宁安市",
        "zipCode": "157400",
        "telPrefix": "0453"
      },
      {
        "name": "佳木斯市",
        "zipCode": "154000",
        "telPrefix": "0454"
      },
      {
        "name": "向阳区",
        "zipCode": "154000",
        "telPrefix": "0454"
      },
      {
        "name": "东风区",
        "zipCode": "154000",
        "telPrefix": "0454"
      },
      {
        "name": "桦南县",
        "zipCode": "154400",
        "telPrefix": "0454"
      },
      {
        "name": "汤原县",
        "zipCode": "154700",
        "telPrefix": "0454"
      },
      {
        "name": "同江市",
        "zipCode": "156400",
        "telPrefix": "0454"
      },
      {
        "name": "绥化市",
        "zipCode": "152000",
        "telPrefix": "0455"
      },
      {
        "name": "北林区",
        "zipCode": "152000",
        "telPrefix": "0455"
      },
      {
        "name": "兰西县",
        "zipCode": "151500",
        "telPrefix": "0455"
      },
      {
        "name": "庆安县",
        "zipCode": "152400",
        "telPrefix": "0455"
      },
      {
        "name": "绥棱县",
        "zipCode": "152200",
        "telPrefix": "0455"
      },
      {
        "name": "肇东市",
        "zipCode": "151100",
        "telPrefix": "0455"
      },
      {
        "name": "黑河市",
        "zipCode": "164300",
        "telPrefix": "0456"
      },
      {
        "name": "北安市",
        "zipCode": "164000",
        "telPrefix": "0456"
      },
      {
        "name": "爱辉区",
        "zipCode": "164300",
        "telPrefix": "0456"
      },
      {
        "name": "逊克县",
        "zipCode": "164400",
        "telPrefix": "0456"
      },
      {
        "name": "德都",
        "zipCode": "164100",
        "telPrefix": "0456"
      }
    ]
  ],
  [
    "上海市",
    []
  ],
  [
    "江苏省",
    []
  ],
  [
    "浙江省",
    []
  ],
  [
    "安徽省",
    []
  ],
  [
    "福建省",
    []
  ],
  [
    "江西省",
    []
  ],
  [
    "山东省",
    []
  ],
  [
    "河南省",
    [
      {
        "name": "商丘市",
        "zipCode": "476000",
        "telPrefix": "0370"
      },
      {
        "name": "梁园区",
        "zipCode": "476000",
        "telPrefix": "0370"
      },
      {
        "name": "民权县",
        "zipCode": "476800",
        "telPrefix": "0370"
      },
      {
        "name": "宁陵县",
        "zipCode": "476700",
        "telPrefix": "0370"
      },
      {
        "name": "虞城县",
        "zipCode": "476300",
        "telPrefix": "0370"
      },
      {
        "name": "永城市",
        "zipCode": "476600",
        "telPrefix": "0370"
      },
      {
        "name": "郑州市",
        "zipCode": "450000",
        "telPrefix": "0371"
      },
      {
        "name": "中原区",
        "zipCode": "450000",
        "telPrefix": "0371"
      },
      {
        "name": "管城回族区",
        "zipCode": "450000",
        "telPrefix": "0371"
      },
      {
        "name": "邙山区",
        "zipCode": "450000",
        "telPrefix": "0371"
      },
      {
        "name": "荥阳市",
        "zipCode": "450100",
        "telPrefix": "0371"
      },
      {
        "name": "登封市",
        "zipCode": "452400",
        "telPrefix": "0371"
      },
      {
        "name": "新密市",
        "zipCode": "452300",
        "telPrefix": "0371"
      },
      {
        "name": "惠济区",
        "zipCode": "450000",
        "telPrefix": "0371"
      },
      {
        "name": "开封市",
        "zipCode": "475000",
        "telPrefix": "0371"
      },
      {
        "name": "龙亭区",
        "zipCode": "475000",
        "telPrefix": "0371"
      },
      {
        "name": "鼓楼区",
        "zipCode": "475000",
        "telPrefix": "0371"
      },
      {
        "name": "金明区",
        "zipCode": "475000",
        "telPrefix": "0371"
      },
      {
        "name": "通许县",
        "zipCode": "475400",
        "telPrefix": "0371"
      },
      {
        "name": "祥符区",
        "zipCode": "475100",
        "telPrefix": "0371"
      },
      {
        "name": "开封县",
        "zipCode": "475000",
        "telPrefix": "0371"
      },
      {
        "name": "安阳市",
        "zipCode": "455000",
        "telPrefix": "0372"
      },
      {
        "name": "文峰区",
        "zipCode": "455000",
        "telPrefix": "0372"
      },
      {
        "name": "殷都区",
        "zipCode": "455000",
        "telPrefix": "0372"
      },
      {
        "name": "安阳县",
        "zipCode": "455100",
        "telPrefix": "0372"
      },
      {
        "name": "内黄县",
        "zipCode": "456300",
        "telPrefix": "0372"
      },
      {
        "name": "汤阴县",
        "zipCode": "456100",
        "telPrefix": "0372"
      },
      {
        "name": "新乡市",
        "zipCode": "453000",
        "telPrefix": "0373"
      },
      {
        "name": "红旗区",
        "zipCode": "453000",
        "telPrefix": "0373"
      },
      {
        "name": "获嘉县",
        "zipCode": "453800",
        "telPrefix": "0373"
      },
      {
        "name": "延津县",
        "zipCode": "453200",
        "telPrefix": "0373"
      },
      {
        "name": "长垣县",
        "zipCode": "453400",
        "telPrefix": "0373"
      },
      {
        "name": "辉县市",
        "zipCode": "453600",
        "telPrefix": "0373"
      },
      {
        "name": "牧野区",
        "zipCode": "453000",
        "telPrefix": "0373"
      },
      {
        "name": "许昌市",
        "zipCode": "461000",
        "telPrefix": "0374"
      },
      {
        "name": "魏都区",
        "zipCode": "461000",
        "telPrefix": "0374"
      },
      {
        "name": "鄢陵县",
        "zipCode": "461200",
        "telPrefix": "0374"
      },
      {
        "name": "襄城县",
        "zipCode": "461700",
        "telPrefix": "0374"
      },
      {
        "name": "平顶山市",
        "zipCode": "467000",
        "telPrefix": "0375"
      },
      {
        "name": "汝州市",
        "zipCode": "467500",
        "telPrefix": "0375"
      },
      {
        "name": "卫东区",
        "zipCode": "467000",
        "telPrefix": "0375"
      },
      {
        "name": "湛河区",
        "zipCode": "467000",
        "telPrefix": "0375"
      },
      {
        "name": "叶县",
        "zipCode": "467200",
        "telPrefix": "0375"
      },
      {
        "name": "郏县",
        "zipCode": "467100",
        "telPrefix": "0375"
      },
      {
        "name": "信阳市",
        "zipCode": "464000",
        "telPrefix": "0376"
      },
      {
        "name": "平桥区",
        "zipCode": "464000",
        "telPrefix": "0376"
      },
      {
        "name": "固始县",
        "zipCode": "465200",
        "telPrefix": "0376"
      },
      {
        "name": "息县",
        "zipCode": "464300",
        "telPrefix": "0376"
      },
      {
        "name": "潢川县",
        "zipCode": "465100",
        "telPrefix": "0376"
      },
      {
        "name": "浉河区",
        "zipCode": "464000",
        "telPrefix": "0376"
      },
      {
        "name": "南阳市",
        "zipCode": "473000",
        "telPrefix": "0377"
      },
      {
        "name": "社旗县",
        "zipCode": "473300",
        "telPrefix": "0377"
      },
      {
        "name": "新野县",
        "zipCode": "473500",
        "telPrefix": "0377"
      },
      {
        "name": "卧龙区",
        "zipCode": "473000",
        "telPrefix": "0377"
      },
      {
        "name": "邓州市",
        "zipCode": "474100",
        "telPrefix": "0377"
      },
      {
        "name": "南召县",
        "zipCode": "474600",
        "telPrefix": "0377"
      },
      {
        "name": "西峡县",
        "zipCode": "474500",
        "telPrefix": "0377"
      },
      {
        "name": "镇平县",
        "zipCode": "474200",
        "telPrefix": "0377"
      },
      {
        "name": "洛阳市",
        "zipCode": "471000",
        "telPrefix": "0379"
      },
      {
        "name": "老城区",
        "zipCode": "471000",
        "telPrefix": "0379"
      },
      {
        "name": "涧西区",
        "zipCode": "471000",
        "telPrefix": "0379"
      },
      {
        "name": "洛龙区",
        "zipCode": "471000",
        "telPrefix": "0379"
      },
      {
        "name": "新安县",
        "zipCode": "471800",
        "telPrefix": "0379"
      },
      {
        "name": "伊川县",
        "zipCode": "471300",
        "telPrefix": "0379"
      },
      {
        "name": "嵩县",
        "zipCode": "471400",
        "telPrefix": "0379"
      },
      {
        "name": "宜阳县",
        "zipCode": "471600",
        "telPrefix": "0379"
      },
      {
        "name": "瀍河回族区",
        "zipCode": "471000",
        "telPrefix": "0379"
      },
      {
        "name": "济源市",
        "zipCode": "454650",
        "telPrefix": "0391"
      },
      {
        "name": "沁园街道",
        "zipCode": "459099",
        "telPrefix": "0391"
      },
      {
        "name": "北海街道",
        "zipCode": "459003",
        "telPrefix": "0391"
      },
      {
        "name": "玉泉街道",
        "zipCode": "459002",
        "telPrefix": "0391"
      },
      {
        "name": "五龙口镇",
        "zipCode": "459011",
        "telPrefix": "0391"
      },
      {
        "name": "承留镇",
        "zipCode": "459007",
        "telPrefix": "0391"
      },
      {
        "name": "坡头镇",
        "zipCode": "459016",
        "telPrefix": "0391"
      },
      {
        "name": "大峪镇",
        "zipCode": "459017",
        "telPrefix": "0391"
      },
      {
        "name": "王屋镇",
        "zipCode": "459013",
        "telPrefix": "0391"
      },
      {
        "name": "焦作市",
        "zipCode": "454100",
        "telPrefix": "0391"
      },
      {
        "name": "孟州市",
        "zipCode": "454700",
        "telPrefix": "0391"
      },
      {
        "name": "温县",
        "zipCode": "454800",
        "telPrefix": "0391"
      },
      {
        "name": "博爱县",
        "zipCode": "454400",
        "telPrefix": "0391"
      },
      {
        "name": "解放区",
        "zipCode": "454000",
        "telPrefix": "0391"
      },
      {
        "name": "山阳区",
        "zipCode": "454000",
        "telPrefix": "0391"
      },
      {
        "name": "孟县",
        "zipCode": "454700",
        "telPrefix": "0391"
      },
      {
        "name": "鹤壁市",
        "zipCode": "458000",
        "telPrefix": "0392"
      },
      {
        "name": "鹤山区",
        "zipCode": "458000",
        "telPrefix": "0392"
      },
      {
        "name": "淇滨区",
        "zipCode": "458000",
        "telPrefix": "0392"
      },
      {
        "name": "淇县",
        "zipCode": "456700",
        "telPrefix": "0392"
      },
      {
        "name": "濮阳市",
        "zipCode": "457000",
        "telPrefix": "0393"
      },
      {
        "name": "清丰县",
        "zipCode": "457300",
        "telPrefix": "0393"
      },
      {
        "name": "范县",
        "zipCode": "457500",
        "telPrefix": "0393"
      },
      {
        "name": "濮阳县",
        "zipCode": "457100",
        "telPrefix": "0393"
      },
      {
        "name": "周口市",
        "zipCode": "466000",
        "telPrefix": "0394"
      },
      {
        "name": "川汇区",
        "zipCode": "466000",
        "telPrefix": "0394"
      },
      {
        "name": "西华县",
        "zipCode": "466600",
        "telPrefix": "0394"
      },
      {
        "name": "沈丘县",
        "zipCode": "466300",
        "telPrefix": "0394"
      },
      {
        "name": "鹿邑县",
        "zipCode": "477200",
        "telPrefix": "0394"
      },
      {
        "name": "郸城县",
        "zipCode": "477100",
        "telPrefix": "0394"
      },
      {
        "name": "漯河市",
        "zipCode": "462000",
        "telPrefix": "0395"
      },
      {
        "name": "源汇区",
        "zipCode": "462000",
        "telPrefix": "0395"
      },
      {
        "name": "临颍县",
        "zipCode": "462600",
        "telPrefix": "0395"
      },
      {
        "name": "召陵区",
        "zipCode": "462000",
        "telPrefix": "0395"
      },
      {
        "name": "驻马店市",
        "zipCode": "463000",
        "telPrefix": "0396"
      },
      {
        "name": "驿城区",
        "zipCode": "463000",
        "telPrefix": "0396"
      },
      {
        "name": "西平县",
        "zipCode": "463900",
        "telPrefix": "0396"
      },
      {
        "name": "平舆县",
        "zipCode": "463400",
        "telPrefix": "0396"
      },
      {
        "name": "确山县",
        "zipCode": "463200",
        "telPrefix": "0396"
      },
      {
        "name": "汝南县",
        "zipCode": "463300",
        "telPrefix": "0396"
      },
      {
        "name": "三门峡市",
        "zipCode": "472000",
        "telPrefix": "0398"
      },
      {
        "name": "湖滨区",
        "zipCode": "472000",
        "telPrefix": "0398"
      },
      {
        "name": "陕州区",
        "zipCode": "472100",
        "telPrefix": "0398"
      },
      {
        "name": "义马市",
        "zipCode": "472300",
        "telPrefix": "0398"
      }
    ]
  ],
  [
    "湖北省",
    [
      {
        "name": "神农架林区",
        "zipCode": "442400",
        "telPrefix": "0719"
      },
      {
        "name": "江汉（天门/仙桃/潜江）区",
        "zipCode": "433000",
        "telPrefix": "0728"
      },
      {
        "name": "十堰市",
        "zipCode": "442000",
        "telPrefix": "0719"
      },
      {
        "name": "丹江口市",
        "zipCode": "442700",
        "telPrefix": "0719"
      },
      {
        "name": "房县",
        "zipCode": "442100",
        "telPrefix": "0719"
      },
      {
        "name": "郧阳区",
        "zipCode": "442500",
        "telPrefix": "0719"
      },
      {
        "name": "竹山县",
        "zipCode": "442200",
        "telPrefix": "0719"
      },
      {
        "name": "随州市",
        "zipCode": "441300",
        "telPrefix": "0722"
      },
      {
        "name": "广水市",
        "zipCode": "432700",
        "telPrefix": "0722"
      },
      {
        "name": "随县",
        "zipCode": "441315",
        "telPrefix": "0722"
      },
      {
        "name": "荆门市",
        "zipCode": "448000",
        "telPrefix": "0724"
      },
      {
        "name": "钟祥市",
        "zipCode": "431900",
        "telPrefix": "0724"
      },
      {
        "name": "沙洋县",
        "zipCode": "448200",
        "telPrefix": "0724"
      },
      {
        "name": "掇刀区",
        "zipCode": "448100",
        "telPrefix": "0724"
      },
      {
        "name": "潜江市",
        "zipCode": "433100",
        "telPrefix": "0728"
      },
      {
        "name": "园林",
        "zipCode": "433199",
        "telPrefix": "0728"
      },
      {
        "name": "周矶",
        "zipCode": "433119",
        "telPrefix": "0728"
      },
      {
        "name": "泰丰",
        "zipCode": "433199",
        "telPrefix": "0728"
      },
      {
        "name": "竹根滩镇",
        "zipCode": "433131",
        "telPrefix": "0728"
      },
      {
        "name": "王场镇",
        "zipCode": "433122",
        "telPrefix": "0728"
      },
      {
        "name": "熊口镇",
        "zipCode": "433136",
        "telPrefix": "0728"
      },
      {
        "name": "浩口镇",
        "zipCode": "433116",
        "telPrefix": "0728"
      },
      {
        "name": "张金镇",
        "zipCode": "433140",
        "telPrefix": "0728"
      },
      {
        "name": "后湖管理区",
        "zipCode": "433115",
        "telPrefix": "0728"
      },
      {
        "name": "运粮湖管理区",
        "zipCode": "433118",
        "telPrefix": "0728"
      },
      {
        "name": "天门市",
        "zipCode": "431700",
        "telPrefix": "0728"
      },
      {
        "name": "竟陵街道",
        "zipCode": "431799",
        "telPrefix": "0728"
      },
      {
        "name": "多宝镇",
        "zipCode": "431722",
        "telPrefix": "0728"
      },
      {
        "name": "张港镇",
        "zipCode": "431726",
        "telPrefix": "0728"
      },
      {
        "name": "汪场镇",
        "zipCode": "431717",
        "telPrefix": "0728"
      },
      {
        "name": "黄潭镇",
        "zipCode": "431708",
        "telPrefix": "0728"
      },
      {
        "name": "横林镇",
        "zipCode": "431720",
        "telPrefix": "0728"
      },
      {
        "name": "麻洋镇",
        "zipCode": "431727",
        "telPrefix": "0728"
      },
      {
        "name": "干驿镇",
        "zipCode": "431714",
        "telPrefix": "0728"
      },
      {
        "name": "卢市镇",
        "zipCode": "431729",
        "telPrefix": "0728"
      },
      {
        "name": "九真镇",
        "zipCode": "431705",
        "telPrefix": "0728"
      },
      {
        "name": "胡市镇",
        "zipCode": "431713",
        "telPrefix": "0728"
      },
      {
        "name": "佛子山镇",
        "zipCode": "431707",
        "telPrefix": "0728"
      },
      {
        "name": "仙桃市",
        "zipCode": "433000",
        "telPrefix": "0728"
      },
      {
        "name": "沙嘴街道",
        "zipCode": "433099",
        "telPrefix": "0728"
      },
      {
        "name": "龙华山",
        "zipCode": "433099",
        "telPrefix": "0728"
      },
      {
        "name": "毛嘴镇",
        "zipCode": "433008",
        "telPrefix": "0728"
      },
      {
        "name": "三伏潭镇",
        "zipCode": "433005",
        "telPrefix": "0728"
      },
      {
        "name": "长倘口镇",
        "zipCode": "433024",
        "telPrefix": "0728"
      },
      {
        "name": "沙湖镇",
        "zipCode": "433019",
        "telPrefix": "0728"
      },
      {
        "name": "彭场镇",
        "zipCode": "433018",
        "telPrefix": "0728"
      },
      {
        "name": "郭河镇",
        "zipCode": "433013",
        "telPrefix": "0728"
      },
      {
        "name": "陈场镇",
        "zipCode": "433016",
        "telPrefix": "0728"
      },
      {
        "name": "五湖渔场",
        "zipCode": "433019",
        "telPrefix": "0728"
      },
      {
        "name": "武汉市",
        "zipCode": "430000",
        "telPrefix": "027"
      },
      {
        "name": "江汉区",
        "zipCode": "430000",
        "telPrefix": "027"
      },
      {
        "name": "蔡甸区",
        "zipCode": "430100",
        "telPrefix": "027"
      },
      {
        "name": "东西湖区",
        "zipCode": "430000",
        "telPrefix": "027"
      },
      {
        "name": "汉阳区",
        "zipCode": "430000",
        "telPrefix": "027"
      },
      {
        "name": "黄陂区",
        "zipCode": "430300",
        "telPrefix": "027"
      },
      {
        "name": "硚口区",
        "zipCode": "430000",
        "telPrefix": "027"
      },
      {
        "name": "新洲区",
        "zipCode": "430400",
        "telPrefix": "027"
      },
      {
        "name": "襄阳市",
        "zipCode": "441000",
        "telPrefix": "0710"
      },
      {
        "name": "襄州区",
        "zipCode": "441100",
        "telPrefix": "0710"
      },
      {
        "name": "宜城市",
        "zipCode": "441400",
        "telPrefix": "0710"
      },
      {
        "name": "谷城县",
        "zipCode": "441700",
        "telPrefix": "0710"
      },
      {
        "name": "南漳县",
        "zipCode": "441500",
        "telPrefix": "0710"
      },
      {
        "name": "襄城区",
        "zipCode": "441000",
        "telPrefix": "0710"
      },
      {
        "name": "鄂州市",
        "zipCode": "436000",
        "telPrefix": "0711"
      },
      {
        "name": "梁子湖区",
        "zipCode": "436000",
        "telPrefix": "0711"
      },
      {
        "name": "鄂城区",
        "zipCode": "436000",
        "telPrefix": "0711"
      },
      {
        "name": "孝感市",
        "zipCode": "432000",
        "telPrefix": "0712"
      },
      {
        "name": "孝昌县",
        "zipCode": "432900",
        "telPrefix": "0712"
      },
      {
        "name": "云梦县",
        "zipCode": "432500",
        "telPrefix": "0712"
      },
      {
        "name": "安陆市",
        "zipCode": "432600",
        "telPrefix": "0712"
      },
      {
        "name": "孝南区",
        "zipCode": "432000",
        "telPrefix": "0712"
      },
      {
        "name": "黄冈市",
        "zipCode": "438000",
        "telPrefix": "0713"
      },
      {
        "name": "黄州区",
        "zipCode": "438000",
        "telPrefix": "0713"
      },
      {
        "name": "罗田县",
        "zipCode": "438600",
        "telPrefix": "0713"
      },
      {
        "name": "浠水县",
        "zipCode": "438200",
        "telPrefix": "0713"
      },
      {
        "name": "黄梅县",
        "zipCode": "435500",
        "telPrefix": "0713"
      },
      {
        "name": "武穴市",
        "zipCode": "435400",
        "telPrefix": "0713"
      },
      {
        "name": "黄石市",
        "zipCode": "435000",
        "telPrefix": "0714"
      },
      {
        "name": "黄石港区",
        "zipCode": "435000",
        "telPrefix": "0714"
      },
      {
        "name": "铁山区",
        "zipCode": "435000",
        "telPrefix": "0714"
      },
      {
        "name": "大冶市",
        "zipCode": "435100",
        "telPrefix": "0714"
      },
      {
        "name": "西塞山区",
        "zipCode": "435000",
        "telPrefix": "0714"
      },
      {
        "name": "咸宁市",
        "zipCode": "437000",
        "telPrefix": "0715"
      },
      {
        "name": "咸安区",
        "zipCode": "437000",
        "telPrefix": "0715"
      },
      {
        "name": "通城县",
        "zipCode": "437400",
        "telPrefix": "0715"
      },
      {
        "name": "通山县",
        "zipCode": "437600",
        "telPrefix": "0715"
      },
      {
        "name": "蒲圻",
        "zipCode": "437300",
        "telPrefix": "0715"
      },
      {
        "name": "荆州市",
        "zipCode": "434000",
        "telPrefix": "0716"
      },
      {
        "name": "洪湖市",
        "zipCode": "433200",
        "telPrefix": "0716"
      },
      {
        "name": "沙市区",
        "zipCode": "434000",
        "telPrefix": "0716"
      },
      {
        "name": "公安县",
        "zipCode": "434300",
        "telPrefix": "0716"
      },
      {
        "name": "江陵县",
        "zipCode": "434100",
        "telPrefix": "0716"
      },
      {
        "name": "荆沙",
        "zipCode": "434100",
        "telPrefix": "0716"
      },
      {
        "name": "宜昌市",
        "zipCode": "443000",
        "telPrefix": "0717"
      },
      {
        "name": "枝江市",
        "zipCode": "443200",
        "telPrefix": "0717"
      },
      {
        "name": "五峰土家族自治县",
        "zipCode": "443400",
        "telPrefix": "0717"
      },
      {
        "name": "西陵区",
        "zipCode": "443000",
        "telPrefix": "0717"
      },
      {
        "name": "点军区",
        "zipCode": "443000",
        "telPrefix": "0717"
      },
      {
        "name": "夷陵区",
        "zipCode": "443100",
        "telPrefix": "0717"
      },
      {
        "name": "兴山县",
        "zipCode": "443700",
        "telPrefix": "0717"
      },
      {
        "name": "宜都市",
        "zipCode": "443300",
        "telPrefix": "0717"
      },
      {
        "name": "枝城",
        "zipCode": "443300",
        "telPrefix": "0717"
      },
      {
        "name": "恩施土家族苗族自治州",
        "zipCode": "445000",
        "telPrefix": "0718"
      },
      {
        "name": "恩施市",
        "zipCode": "445000",
        "telPrefix": "0718"
      },
      {
        "name": "建始县",
        "zipCode": "445300",
        "telPrefix": "0718"
      },
      {
        "name": "宣恩县",
        "zipCode": "445500",
        "telPrefix": "0718"
      },
      {
        "name": "来凤县",
        "zipCode": "445700",
        "telPrefix": "0718"
      }
    ]
  ],
  [
    "湖南省",
    [
      {
        "name": "岳阳市",
        "zipCode": "414000",
        "telPrefix": "0730"
      },
      {
        "name": "岳阳楼区",
        "zipCode": "414000",
        "telPrefix": "0730"
      },
      {
        "name": "君山区",
        "zipCode": "414000",
        "telPrefix": "0730"
      },
      {
        "name": "华容县",
        "zipCode": "414200",
        "telPrefix": "0730"
      },
      {
        "name": "临湘市",
        "zipCode": "414300",
        "telPrefix": "0730"
      },
      {
        "name": "湘阴县",
        "zipCode": "414600",
        "telPrefix": "0730"
      },
      {
        "name": "长沙市",
        "zipCode": "410000",
        "telPrefix": "0731"
      },
      {
        "name": "开福区",
        "zipCode": "410000",
        "telPrefix": "0731"
      },
      {
        "name": "长沙县",
        "zipCode": "410100",
        "telPrefix": "0731"
      },
      {
        "name": "浏阳市",
        "zipCode": "410300",
        "telPrefix": "0731"
      },
      {
        "name": "天心区",
        "zipCode": "410000",
        "telPrefix": "0731"
      },
      {
        "name": "望城区",
        "zipCode": "410200",
        "telPrefix": "0731"
      },
      {
        "name": "湘潭市",
        "zipCode": "411100",
        "telPrefix": "0731"
      },
      {
        "name": "雨湖区",
        "zipCode": "411100",
        "telPrefix": "0731"
      },
      {
        "name": "湘潭县",
        "zipCode": "411200",
        "telPrefix": "0731"
      },
      {
        "name": "韶山市",
        "zipCode": "411300",
        "telPrefix": "0731"
      },
      {
        "name": "株洲市",
        "zipCode": "412000",
        "telPrefix": "0731"
      },
      {
        "name": "醴陵市",
        "zipCode": "412200",
        "telPrefix": "0731"
      },
      {
        "name": "芦淞区",
        "zipCode": "412000",
        "telPrefix": "0731"
      },
      {
        "name": "天元区",
        "zipCode": "412000",
        "telPrefix": "0731"
      },
      {
        "name": "茶陵县",
        "zipCode": "412400",
        "telPrefix": "0731"
      },
      {
        "name": "株洲县",
        "zipCode": "412100",
        "telPrefix": "0731"
      },
      {
        "name": "衡阳市",
        "zipCode": "421000",
        "telPrefix": "0734"
      },
      {
        "name": "珠晖区",
        "zipCode": "421000",
        "telPrefix": "0734"
      },
      {
        "name": "石鼓区",
        "zipCode": "421000",
        "telPrefix": "0734"
      },
      {
        "name": "衡阳县",
        "zipCode": "421200",
        "telPrefix": "0734"
      },
      {
        "name": "衡山县",
        "zipCode": "421300",
        "telPrefix": "0734"
      },
      {
        "name": "祁东县",
        "zipCode": "421600",
        "telPrefix": "0734"
      },
      {
        "name": "常宁市",
        "zipCode": "421500",
        "telPrefix": "0734"
      },
      {
        "name": "郴州市",
        "zipCode": "423000",
        "telPrefix": "0735"
      },
      {
        "name": "北湖区",
        "zipCode": "423000",
        "telPrefix": "0735"
      },
      {
        "name": "桂阳县",
        "zipCode": "424400",
        "telPrefix": "0735"
      },
      {
        "name": "永兴县",
        "zipCode": "423300",
        "telPrefix": "0735"
      },
      {
        "name": "临武县",
        "zipCode": "424300",
        "telPrefix": "0735"
      },
      {
        "name": "桂东县",
        "zipCode": "423500",
        "telPrefix": "0735"
      },
      {
        "name": "资兴市",
        "zipCode": "423400",
        "telPrefix": "0735"
      },
      {
        "name": "常德市",
        "zipCode": "415000",
        "telPrefix": "0736"
      },
      {
        "name": "澧县",
        "zipCode": "415500",
        "telPrefix": "0736"
      },
      {
        "name": "桃源县",
        "zipCode": "415700",
        "telPrefix": "0736"
      },
      {
        "name": "津市市",
        "zipCode": "415400",
        "telPrefix": "0736"
      },
      {
        "name": "鼎城区",
        "zipCode": "415100",
        "telPrefix": "0736"
      },
      {
        "name": "汉寿县",
        "zipCode": "415900",
        "telPrefix": "0736"
      },
      {
        "name": "益阳市",
        "zipCode": "413000",
        "telPrefix": "0737"
      },
      {
        "name": "资阳区",
        "zipCode": "413000",
        "telPrefix": "0737"
      },
      {
        "name": "南县",
        "zipCode": "413200",
        "telPrefix": "0737"
      },
      {
        "name": "安化县",
        "zipCode": "413500",
        "telPrefix": "0737"
      },
      {
        "name": "娄底市",
        "zipCode": "417000",
        "telPrefix": "0738"
      },
      {
        "name": "娄星区",
        "zipCode": "417000",
        "telPrefix": "0738"
      },
      {
        "name": "新化县",
        "zipCode": "417600",
        "telPrefix": "0738"
      },
      {
        "name": "涟源市",
        "zipCode": "417100",
        "telPrefix": "0738"
      },
      {
        "name": "邵阳市",
        "zipCode": "422000",
        "telPrefix": "0739"
      },
      {
        "name": "武冈市",
        "zipCode": "422400",
        "telPrefix": "0739"
      },
      {
        "name": "大祥区",
        "zipCode": "422000",
        "telPrefix": "0739"
      },
      {
        "name": "邵东县",
        "zipCode": "422800",
        "telPrefix": "0739"
      },
      {
        "name": "邵阳县",
        "zipCode": "422100",
        "telPrefix": "0739"
      },
      {
        "name": "洞口县",
        "zipCode": "422300",
        "telPrefix": "0739"
      },
      {
        "name": "新宁县",
        "zipCode": "422700",
        "telPrefix": "0739"
      },
      {
        "name": "武岗",
        "zipCode": "422400",
        "telPrefix": "0739"
      },
      {
        "name": "张家界市",
        "zipCode": "427000",
        "telPrefix": "0744"
      },
      {
        "name": "慈利县",
        "zipCode": "427200",
        "telPrefix": "0744"
      },
      {
        "name": "武陵源区",
        "zipCode": "427400",
        "telPrefix": "0744"
      },
      {
        "name": "怀化市",
        "zipCode": "418000",
        "telPrefix": "0745"
      },
      {
        "name": "通道侗族自治县",
        "zipCode": "418500",
        "telPrefix": "0745"
      },
      {
        "name": "新晃侗族自治县",
        "zipCode": "419200",
        "telPrefix": "0745"
      },
      {
        "name": "靖州苗族侗族自治县",
        "zipCode": "418400",
        "telPrefix": "0745"
      },
      {
        "name": "中方县",
        "zipCode": "418000",
        "telPrefix": "0745"
      },
      {
        "name": "辰溪县",
        "zipCode": "419500",
        "telPrefix": "0745"
      },
      {
        "name": "会同县",
        "zipCode": "418300",
        "telPrefix": "0745"
      },
      {
        "name": "黔阳",
        "zipCode": "418100",
        "telPrefix": "0745"
      },
      {
        "name": "永州市",
        "zipCode": "425000",
        "telPrefix": "0746"
      },
      {
        "name": "江华瑶族自治县",
        "zipCode": "425500",
        "telPrefix": "0746"
      },
      {
        "name": "东安县",
        "zipCode": "425900",
        "telPrefix": "0746"
      },
      {
        "name": "道县",
        "zipCode": "425300",
        "telPrefix": "0746"
      },
      {
        "name": "宁远县",
        "zipCode": "425600",
        "telPrefix": "0746"
      },
      {
        "name": "新田县",
        "zipCode": "425700",
        "telPrefix": "0746"
      },
      {
        "name": "零陵区",
        "zipCode": "425100",
        "telPrefix": "0746"
      },
      {
        "name": "湘西土家族苗族自治州",
        "zipCode": "416000",
        "telPrefix": "0743"
      },
      {
        "name": "吉首市",
        "zipCode": "416000",
        "telPrefix": "0743"
      },
      {
        "name": "凤凰县",
        "zipCode": "416200",
        "telPrefix": "0743"
      },
      {
        "name": "花垣县",
        "zipCode": "416400",
        "telPrefix": "0743"
      },
      {
        "name": "古丈县",
        "zipCode": "416300",
        "telPrefix": "0743"
      }
    ]
  ],
  [
    "广东省",
    [
      {
        "name": "广州市",
        "zipCode": "510000",
        "telPrefix": "020"
      },
      {
        "name": "越秀区",
        "zipCode": "510000",
        "telPrefix": "020"
      },
      {
        "name": "番禺区",
        "zipCode": "511400",
        "telPrefix": "020"
      },
      {
        "name": "南沙区",
        "zipCode": "511400",
        "telPrefix": "020"
      },
      {
        "name": "增城区",
        "zipCode": "511300",
        "telPrefix": "020"
      },
      {
        "name": "白云区",
        "zipCode": "510400",
        "telPrefix": "020"
      },
      {
        "name": "荔湾区",
        "zipCode": "510100",
        "telPrefix": "020"
      },
      {
        "name": "花都区（原花县）",
        "zipCode": "510800",
        "telPrefix": "020"
      },
      {
        "name": "汕尾市",
        "zipCode": "516600",
        "telPrefix": "0660"
      },
      {
        "name": "城区",
        "zipCode": "516600",
        "telPrefix": "0660"
      },
      {
        "name": "陆河县",
        "zipCode": "516700",
        "telPrefix": "0660"
      },
      {
        "name": "红海湾经济开发试验区",
        "zipCode": "516600",
        "telPrefix": "0660"
      },
      {
        "name": "阳江市",
        "zipCode": "529500",
        "telPrefix": "0662"
      },
      {
        "name": "江城区",
        "zipCode": "529500",
        "telPrefix": "0662"
      },
      {
        "name": "阳东区",
        "zipCode": "529900",
        "telPrefix": "0662"
      },
      {
        "name": "揭阳市",
        "zipCode": "522000",
        "telPrefix": "0663"
      },
      {
        "name": "榕城区",
        "zipCode": "522000",
        "telPrefix": "0663"
      },
      {
        "name": "揭西县",
        "zipCode": "515400",
        "telPrefix": "0663"
      },
      {
        "name": "普宁市",
        "zipCode": "515300",
        "telPrefix": "0663"
      },
      {
        "name": "经济开发试验区",
        "zipCode": "522000",
        "telPrefix": "0663"
      },
      {
        "name": "茂名市",
        "zipCode": "525000",
        "telPrefix": "0668"
      },
      {
        "name": "茂南区",
        "zipCode": "525000",
        "telPrefix": "0668"
      },
      {
        "name": "电白区",
        "zipCode": "525400",
        "telPrefix": "0668"
      },
      {
        "name": "化州市",
        "zipCode": "525100",
        "telPrefix": "0668"
      },
      {
        "name": "江门市",
        "zipCode": "529000",
        "telPrefix": "0750"
      },
      {
        "name": "蓬江区",
        "zipCode": "529000",
        "telPrefix": "0750"
      },
      {
        "name": "新会区",
        "zipCode": "529100",
        "telPrefix": "0750"
      },
      {
        "name": "开平市",
        "zipCode": "529300",
        "telPrefix": "0750"
      },
      {
        "name": "恩平市",
        "zipCode": "529400",
        "telPrefix": "0750"
      },
      {
        "name": "韶关市",
        "zipCode": "512000",
        "telPrefix": "0751"
      },
      {
        "name": "武江区",
        "zipCode": "512000",
        "telPrefix": "0751"
      },
      {
        "name": "曲江区",
        "zipCode": "512100",
        "telPrefix": "0751"
      },
      {
        "name": "仁化县",
        "zipCode": "512300",
        "telPrefix": "0751"
      },
      {
        "name": "乳源瑶族自治县",
        "zipCode": "512700",
        "telPrefix": "0751"
      },
      {
        "name": "乐昌市",
        "zipCode": "512200",
        "telPrefix": "0751"
      },
      {
        "name": "惠州市",
        "zipCode": "516000",
        "telPrefix": "0752"
      },
      {
        "name": "惠城区",
        "zipCode": "516000",
        "telPrefix": "0752"
      },
      {
        "name": "博罗县",
        "zipCode": "516100",
        "telPrefix": "0752"
      },
      {
        "name": "龙门县",
        "zipCode": "516800",
        "telPrefix": "0752"
      },
      {
        "name": "梅州市",
        "zipCode": "514000",
        "telPrefix": "0753"
      },
      {
        "name": "梅江区",
        "zipCode": "514000",
        "telPrefix": "0753"
      },
      {
        "name": "平远县",
        "zipCode": "514600",
        "telPrefix": "0753"
      },
      {
        "name": "梅县区",
        "zipCode": "514700",
        "telPrefix": "0753"
      },
      {
        "name": "丰顺县",
        "zipCode": "514300",
        "telPrefix": "0753"
      },
      {
        "name": "汕头市",
        "zipCode": "515000",
        "telPrefix": "0754"
      },
      {
        "name": "龙湖区",
        "zipCode": "515000",
        "telPrefix": "0754"
      },
      {
        "name": "濠江区",
        "zipCode": "515000",
        "telPrefix": "0754"
      },
      {
        "name": "潮南区",
        "zipCode": "515100",
        "telPrefix": "0754"
      },
      {
        "name": "南澳县",
        "zipCode": "515900",
        "telPrefix": "0754"
      },
      {
        "name": "深圳市",
        "zipCode": "518000",
        "telPrefix": "0755"
      },
      {
        "name": "南山区",
        "zipCode": "518000",
        "telPrefix": "0755"
      },
      {
        "name": "龙岗区",
        "zipCode": "518100",
        "telPrefix": "0755"
      },
      {
        "name": "罗湖区",
        "zipCode": "518000",
        "telPrefix": "0755"
      },
      {
        "name": "龙华区",
        "zipCode": "518000",
        "telPrefix": "0755"
      },
      {
        "name": "珠海市",
        "zipCode": "519000",
        "telPrefix": "0756"
      },
      {
        "name": "香洲区",
        "zipCode": "519000",
        "telPrefix": "0756"
      },
      {
        "name": "金湾区",
        "zipCode": "519000",
        "telPrefix": "0756"
      },
      {
        "name": "佛山市",
        "zipCode": "528000",
        "telPrefix": "0757"
      },
      {
        "name": "三水区",
        "zipCode": "528100",
        "telPrefix": "0757"
      },
      {
        "name": "禅城区",
        "zipCode": "528000",
        "telPrefix": "0757"
      },
      {
        "name": "顺德区",
        "zipCode": "528300",
        "telPrefix": "0757"
      },
      {
        "name": "肇庆市",
        "zipCode": "526000",
        "telPrefix": "0758"
      },
      {
        "name": "端州区",
        "zipCode": "526000",
        "telPrefix": "0758"
      },
      {
        "name": "广宁县",
        "zipCode": "526300",
        "telPrefix": "0758"
      },
      {
        "name": "封开县",
        "zipCode": "526500",
        "telPrefix": "0758"
      },
      {
        "name": "高要区",
        "zipCode": "526100",
        "telPrefix": "0758"
      },
      {
        "name": "湛江市",
        "zipCode": "524000",
        "telPrefix": "0759"
      },
      {
        "name": "霞山区",
        "zipCode": "524000",
        "telPrefix": "0759"
      },
      {
        "name": "麻章区",
        "zipCode": "524000",
        "telPrefix": "0759"
      },
      {
        "name": "徐闻县",
        "zipCode": "524100",
        "telPrefix": "0759"
      },
      {
        "name": "雷州市",
        "zipCode": "524200",
        "telPrefix": "0759"
      },
      {
        "name": "赤坎区",
        "zipCode": "524000",
        "telPrefix": "0759"
      },
      {
        "name": "开发区",
        "zipCode": "524000",
        "telPrefix": "0759"
      },
      {
        "name": "中山市",
        "zipCode": "528400",
        "telPrefix": "0760"
      },
      {
        "name": "河源市",
        "zipCode": "517000",
        "telPrefix": "0762"
      },
      {
        "name": "源城区",
        "zipCode": "517000",
        "telPrefix": "0762"
      },
      {
        "name": "龙川县",
        "zipCode": "517300",
        "telPrefix": "0762"
      },
      {
        "name": "连平县",
        "zipCode": "517100",
        "telPrefix": "0762"
      },
      {
        "name": "清远市",
        "zipCode": "511500",
        "telPrefix": "0763"
      },
      {
        "name": "清城区",
        "zipCode": "511500",
        "telPrefix": "0763"
      },
      {
        "name": "阳山县",
        "zipCode": "513100",
        "telPrefix": "0763"
      },
      {
        "name": "连南瑶族自治县",
        "zipCode": "513300",
        "telPrefix": "0763"
      },
      {
        "name": "英德市",
        "zipCode": "513000",
        "telPrefix": "0763"
      },
      {
        "name": "云浮市",
        "zipCode": "527300",
        "telPrefix": "0766"
      },
      {
        "name": "云城区",
        "zipCode": "527300",
        "telPrefix": "0766"
      },
      {
        "name": "郁南县",
        "zipCode": "527100",
        "telPrefix": "0766"
      },
      {
        "name": "罗定市",
        "zipCode": "527200",
        "telPrefix": "0766"
      },
      {
        "name": "潮州市",
        "zipCode": "521000",
        "telPrefix": "0768"
      },
      {
        "name": "饶平县",
        "zipCode": "515700",
        "telPrefix": "0768"
      },
      {
        "name": "潮安区",
        "zipCode": "515600",
        "telPrefix": "0768"
      },
      {
        "name": "东莞市",
        "zipCode": "523000",
        "telPrefix": "0769"
      }
    ]
  ],
  [
    "广西壮族自治区",
    [
      {
        "name": "防城港市",
        "zipCode": "538000",
        "telPrefix": "0770"
      },
      {
        "name": "港口区",
        "zipCode": "538000",
        "telPrefix": "0770"
      },
      {
        "name": "上思县",
        "zipCode": "535500",
        "telPrefix": "0770"
      },
      {
        "name": "南宁市",
        "zipCode": "530000",
        "telPrefix": "0771"
      },
      {
        "name": "兴宁区",
        "zipCode": "530000",
        "telPrefix": "0771"
      },
      {
        "name": "江南区",
        "zipCode": "530000",
        "telPrefix": "0771"
      },
      {
        "name": "良庆区",
        "zipCode": "530200",
        "telPrefix": "0771"
      },
      {
        "name": "武鸣区",
        "zipCode": "530100",
        "telPrefix": "0771"
      },
      {
        "name": "马山县",
        "zipCode": "530600",
        "telPrefix": "0771"
      },
      {
        "name": "宾阳县",
        "zipCode": "530400",
        "telPrefix": "0771"
      },
      {
        "name": "崇左市",
        "zipCode": "532200",
        "telPrefix": "0771"
      },
      {
        "name": "江洲区",
        "zipCode": "532200",
        "telPrefix": "0771"
      },
      {
        "name": "宁明县",
        "zipCode": "532500",
        "telPrefix": "0771"
      },
      {
        "name": "大新县",
        "zipCode": "532300",
        "telPrefix": "0771"
      },
      {
        "name": "凭祥市",
        "zipCode": "532600",
        "telPrefix": "0771"
      },
      {
        "name": "柳州市",
        "zipCode": "545000",
        "telPrefix": "0772"
      },
      {
        "name": "城中区",
        "zipCode": "545000",
        "telPrefix": "0772"
      },
      {
        "name": "柳南区",
        "zipCode": "545000",
        "telPrefix": "0772"
      },
      {
        "name": "柳江区",
        "zipCode": "545100",
        "telPrefix": "0772"
      },
      {
        "name": "鹿寨县",
        "zipCode": "545600",
        "telPrefix": "0772"
      },
      {
        "name": "融水苗族自治县",
        "zipCode": "545300",
        "telPrefix": "0772"
      },
      {
        "name": "融冰",
        "zipCode": "545300",
        "telPrefix": "0772"
      },
      {
        "name": "来宾市",
        "zipCode": "546100",
        "telPrefix": "0772"
      },
      {
        "name": "金秀瑶族自治县",
        "zipCode": "545700",
        "telPrefix": "0772"
      },
      {
        "name": "兴宾区",
        "zipCode": "546100",
        "telPrefix": "0772"
      },
      {
        "name": "象州县",
        "zipCode": "545800",
        "telPrefix": "0772"
      },
      {
        "name": "桂林市",
        "zipCode": "541000",
        "telPrefix": "0773"
      },
      {
        "name": "秀峰区",
        "zipCode": "541000",
        "telPrefix": "0773"
      },
      {
        "name": "象山区",
        "zipCode": "541000",
        "telPrefix": "0773"
      },
      {
        "name": "雁山区",
        "zipCode": "541000",
        "telPrefix": "0773"
      },
      {
        "name": "临桂区",
        "zipCode": "541100",
        "telPrefix": "0773"
      },
      {
        "name": "全州县",
        "zipCode": "541500",
        "telPrefix": "0773"
      },
      {
        "name": "永福县",
        "zipCode": "541800",
        "telPrefix": "0773"
      },
      {
        "name": "龙胜各族自治县",
        "zipCode": "541700",
        "telPrefix": "0773"
      },
      {
        "name": "平乐县",
        "zipCode": "542400",
        "telPrefix": "0773"
      },
      {
        "name": "恭城瑶族自治县",
        "zipCode": "542500",
        "telPrefix": "0773"
      },
      {
        "name": "梧州市",
        "zipCode": "543000",
        "telPrefix": "0774"
      },
      {
        "name": "万秀区",
        "zipCode": "543000",
        "telPrefix": "0774"
      },
      {
        "name": "长洲区",
        "zipCode": "543000",
        "telPrefix": "0774"
      },
      {
        "name": "藤县",
        "zipCode": "543300",
        "telPrefix": "0774"
      },
      {
        "name": "岑溪市",
        "zipCode": "543200",
        "telPrefix": "0774"
      },
      {
        "name": "贺州市",
        "zipCode": "542800",
        "telPrefix": "0774"
      },
      {
        "name": "昭平县",
        "zipCode": "546800",
        "telPrefix": "0774"
      },
      {
        "name": "富川瑶族自治县",
        "zipCode": "542700",
        "telPrefix": "0774"
      },
      {
        "name": "贺县",
        "zipCode": "542800",
        "telPrefix": "0774"
      },
      {
        "name": "玉林市",
        "zipCode": "537000",
        "telPrefix": "0775"
      },
      {
        "name": "玉州区",
        "zipCode": "537000",
        "telPrefix": "0775"
      },
      {
        "name": "陆川县",
        "zipCode": "537700",
        "telPrefix": "0775"
      },
      {
        "name": "兴业县",
        "zipCode": "537800",
        "telPrefix": "0775"
      },
      {
        "name": "福绵区",
        "zipCode": "537000",
        "telPrefix": "0775"
      },
      {
        "name": "贵港市",
        "zipCode": "537100",
        "telPrefix": "0775"
      },
      {
        "name": "港北区",
        "zipCode": "537100",
        "telPrefix": "0775"
      },
      {
        "name": "覃塘区",
        "zipCode": "537100",
        "telPrefix": "0775"
      },
      {
        "name": "桂平市",
        "zipCode": "537200",
        "telPrefix": "0775"
      },
      {
        "name": "百色市",
        "zipCode": "533000",
        "telPrefix": "0776"
      },
      {
        "name": "右江区",
        "zipCode": "533000",
        "telPrefix": "0776"
      },
      {
        "name": "田东县",
        "zipCode": "531500",
        "telPrefix": "0776"
      },
      {
        "name": "德保县",
        "zipCode": "533700",
        "telPrefix": "0776"
      },
      {
        "name": "西林县",
        "zipCode": "533500",
        "telPrefix": "0776"
      },
      {
        "name": "凌云县",
        "zipCode": "533100",
        "telPrefix": "0776"
      },
      {
        "name": "田林县",
        "zipCode": "533300",
        "telPrefix": "0776"
      },
      {
        "name": "钦州市",
        "zipCode": "535000",
        "telPrefix": "0777"
      },
      {
        "name": "钦南区",
        "zipCode": "535000",
        "telPrefix": "0777"
      },
      {
        "name": "灵山县",
        "zipCode": "535400",
        "telPrefix": "0777"
      },
      {
        "name": "河池市",
        "zipCode": "547000",
        "telPrefix": "0778"
      },
      {
        "name": "金城江区",
        "zipCode": "547000",
        "telPrefix": "0778"
      },
      {
        "name": "天峨县",
        "zipCode": "547300",
        "telPrefix": "0778"
      },
      {
        "name": "宜州区",
        "zipCode": "546300",
        "telPrefix": "0778"
      },
      {
        "name": "大化瑶族自治县",
        "zipCode": "530800",
        "telPrefix": "0778"
      },
      {
        "name": "罗城仫佬族自治县",
        "zipCode": "546400",
        "telPrefix": "0778"
      },
      {
        "name": "巴马瑶族自治县",
        "zipCode": "547500",
        "telPrefix": "0778"
      },
      {
        "name": "北海市",
        "zipCode": "536000",
        "telPrefix": "0779"
      },
      {
        "name": "铁山港区",
        "zipCode": "536000",
        "telPrefix": "0779"
      },
      {
        "name": "海城区",
        "zipCode": "536000",
        "telPrefix": "0779"
      }
    ]
  ],
  [
    "海南省",
    [
      {
        "name": "海口市",
        "zipCode": "570100",
        "telPrefix": "0898"
      },
      {
        "name": "龙华区",
        "zipCode": "570100",
        "telPrefix": "0898"
      },
      {
        "name": "美兰区",
        "zipCode": "571100",
        "telPrefix": "0898"
      },
      {
        "name": "三亚市",
        "zipCode": "572000",
        "telPrefix": "0898"
      },
      {
        "name": "海棠区",
        "zipCode": "572013",
        "telPrefix": "0898"
      },
      {
        "name": "天涯区",
        "zipCode": "572029",
        "telPrefix": "0898"
      },
      {
        "name": "东方市",
        "zipCode": "572600",
        "telPrefix": "0898"
      },
      {
        "name": "八所镇",
        "zipCode": "572621",
        "telPrefix": "0898"
      },
      {
        "name": "大田镇",
        "zipCode": "572624",
        "telPrefix": "0898"
      },
      {
        "name": "板桥镇",
        "zipCode": "572635",
        "telPrefix": "0898"
      },
      {
        "name": "四更镇",
        "zipCode": "572622",
        "telPrefix": "0898"
      },
      {
        "name": "天安乡",
        "zipCode": "572626",
        "telPrefix": "0898"
      },
      {
        "name": "万宁市",
        "zipCode": "571500",
        "telPrefix": "0898"
      },
      {
        "name": "万城镇",
        "zipCode": "571599",
        "telPrefix": "0898"
      },
      {
        "name": "和乐镇",
        "zipCode": "571523",
        "telPrefix": "0898"
      },
      {
        "name": "大茂镇",
        "zipCode": "571541",
        "telPrefix": "0898"
      },
      {
        "name": "礼纪镇",
        "zipCode": "571529",
        "telPrefix": "0898"
      },
      {
        "name": "山根镇",
        "zipCode": "571522",
        "telPrefix": "0898"
      },
      {
        "name": "南桥镇",
        "zipCode": "571532",
        "telPrefix": "0898"
      },
      {
        "name": "文昌市",
        "zipCode": "571300",
        "telPrefix": "0898"
      },
      {
        "name": "文城镇",
        "zipCode": "571399",
        "telPrefix": "0898"
      },
      {
        "name": "蓬莱镇",
        "zipCode": "571345",
        "telPrefix": "0898"
      },
      {
        "name": "东路镇",
        "zipCode": "571348",
        "telPrefix": "0898"
      },
      {
        "name": "东阁镇",
        "zipCode": "571336",
        "telPrefix": "0898"
      },
      {
        "name": "东郊镇",
        "zipCode": "571334",
        "telPrefix": "0898"
      },
      {
        "name": "昌洒镇",
        "zipCode": "571332",
        "telPrefix": "0898"
      },
      {
        "name": "抱罗镇",
        "zipCode": "571326",
        "telPrefix": "0898"
      },
      {
        "name": "锦山镇",
        "zipCode": "571323",
        "telPrefix": "0898"
      },
      {
        "name": "公坡镇",
        "zipCode": "571331",
        "telPrefix": "0898"
      },
      {
        "name": "儋州市",
        "zipCode": "571700",
        "telPrefix": "0898"
      },
      {
        "name": "琼海市",
        "zipCode": "571400",
        "telPrefix": "0898"
      },
      {
        "name": "万泉镇",
        "zipCode": "571421",
        "telPrefix": "0898"
      },
      {
        "name": "中原镇",
        "zipCode": "571437",
        "telPrefix": "0898"
      },
      {
        "name": "阳江镇",
        "zipCode": "571441",
        "telPrefix": "0898"
      },
      {
        "name": "潭门镇",
        "zipCode": "571431",
        "telPrefix": "0898"
      },
      {
        "name": "长坡镇",
        "zipCode": "571426",
        "telPrefix": "0898"
      },
      {
        "name": "会山镇",
        "zipCode": "571445",
        "telPrefix": "0898"
      },
      {
        "name": "五指山市",
        "zipCode": "572200",
        "telPrefix": "0898"
      },
      {
        "name": "通什镇",
        "zipCode": "572216",
        "telPrefix": "0898"
      },
      {
        "name": "毛阳镇",
        "zipCode": "572214",
        "telPrefix": "0898"
      },
      {
        "name": "畅好镇",
        "zipCode": "572218",
        "telPrefix": "0898"
      },
      {
        "name": "水满乡",
        "zipCode": "572215",
        "telPrefix": "0898"
      },
      {
        "name": "三沙市",
        "zipCode": "573100",
        "telPrefix": "0898"
      },
      {
        "name": "西沙群岛",
        "zipCode": "573100",
        "telPrefix": "0898"
      },
      {
        "name": "中沙群岛",
        "zipCode": "573100",
        "telPrefix": "0898"
      },
      {
        "name": "临高县",
        "zipCode": "571800",
        "telPrefix": "0898"
      },
      {
        "name": "临城镇",
        "zipCode": "571899",
        "telPrefix": "0898"
      },
      {
        "name": "东英镇",
        "zipCode": "571837",
        "telPrefix": "0898"
      },
      {
        "name": "皇桐镇",
        "zipCode": "571823",
        "telPrefix": "0898"
      },
      {
        "name": "和舍镇",
        "zipCode": "571831",
        "telPrefix": "0898"
      },
      {
        "name": "新盈镇",
        "zipCode": "571835",
        "telPrefix": "0898"
      },
      {
        "name": "澄迈县",
        "zipCode": "571900",
        "telPrefix": "0898"
      },
      {
        "name": "金江镇",
        "zipCode": "571999",
        "telPrefix": "0898"
      },
      {
        "name": "瑞溪镇",
        "zipCode": "571933",
        "telPrefix": "0898"
      },
      {
        "name": "加乐镇",
        "zipCode": "571938",
        "telPrefix": "0898"
      },
      {
        "name": "中兴镇",
        "zipCode": "571944",
        "telPrefix": "0898"
      },
      {
        "name": "福山镇",
        "zipCode": "571921",
        "telPrefix": "0898"
      },
      {
        "name": "大丰镇",
        "zipCode": "571926",
        "telPrefix": "0898"
      },
      {
        "name": "屯昌县",
        "zipCode": "571600",
        "telPrefix": "0898"
      },
      {
        "name": "屯城镇",
        "zipCode": "571699",
        "telPrefix": "0898"
      },
      {
        "name": "枫木镇",
        "zipCode": "571627",
        "telPrefix": "0898"
      },
      {
        "name": "南吕镇",
        "zipCode": "571625",
        "telPrefix": "0898"
      },
      {
        "name": "坡心镇",
        "zipCode": "571629",
        "telPrefix": "0898"
      },
      {
        "name": "定安县",
        "zipCode": "571200",
        "telPrefix": "0898"
      },
      {
        "name": "定城镇",
        "zipCode": "571299",
        "telPrefix": "0898"
      },
      {
        "name": "龙湖镇",
        "zipCode": "571222",
        "telPrefix": "0898"
      },
      {
        "name": "雷鸣镇",
        "zipCode": "571225",
        "telPrefix": "0898"
      },
      {
        "name": "龙河镇",
        "zipCode": "571231",
        "telPrefix": "0898"
      },
      {
        "name": "翰林镇",
        "zipCode": "571228",
        "telPrefix": "0898"
      },
      {
        "name": "琼中黎族苗族自治县",
        "zipCode": "572900",
        "telPrefix": "0898"
      },
      {
        "name": "保亭黎族苗族自治县",
        "zipCode": "572300",
        "telPrefix": "0898"
      },
      {
        "name": "陵水黎族自治县",
        "zipCode": "572400",
        "telPrefix": "0898"
      },
      {
        "name": "乐东黎族自治县",
        "zipCode": "572500",
        "telPrefix": "0898"
      },
      {
        "name": "昌江黎族自治县",
        "zipCode": "572700",
        "telPrefix": "0898"
      },
      {
        "name": "白沙黎族自治县",
        "zipCode": "572800",
        "telPrefix": "0898"
      }
    ]
  ],
  [
    "重庆市",
    []
  ],
  [
    "四川省",
    [
      {
        "name": "成都市",
        "zipCode": "610000",
        "telPrefix": "028"
      },
      {
        "name": "锦江区",
        "zipCode": "610000",
        "telPrefix": "028"
      },
      {
        "name": "金牛区",
        "zipCode": "610000",
        "telPrefix": "028"
      },
      {
        "name": "成华区",
        "zipCode": "610000",
        "telPrefix": "028"
      },
      {
        "name": "青白江区",
        "zipCode": "610300",
        "telPrefix": "028"
      },
      {
        "name": "金堂县",
        "zipCode": "610400",
        "telPrefix": "028"
      },
      {
        "name": "郫都区",
        "zipCode": "611700",
        "telPrefix": "028"
      },
      {
        "name": "蒲江县",
        "zipCode": "611600",
        "telPrefix": "028"
      },
      {
        "name": "都江堰市",
        "zipCode": "611800",
        "telPrefix": "028"
      },
      {
        "name": "邛崃市",
        "zipCode": "611500",
        "telPrefix": "028"
      },
      {
        "name": "温江区",
        "zipCode": "611100",
        "telPrefix": "028"
      },
      {
        "name": "眉山市",
        "zipCode": "620000",
        "telPrefix": "028"
      },
      {
        "name": "洪雅县",
        "zipCode": "620300",
        "telPrefix": "028"
      },
      {
        "name": "仁寿县",
        "zipCode": "620500",
        "telPrefix": "028"
      },
      {
        "name": "青神县",
        "zipCode": "620400",
        "telPrefix": "028"
      },
      {
        "name": "资阳市",
        "zipCode": "641300",
        "telPrefix": "028"
      },
      {
        "name": "乐至县",
        "zipCode": "641500",
        "telPrefix": "028"
      },
      {
        "name": "安岳县",
        "zipCode": "642300",
        "telPrefix": "028"
      },
      {
        "name": "攀枝花市",
        "zipCode": "617000",
        "telPrefix": "0812"
      },
      {
        "name": "东区",
        "zipCode": "617000",
        "telPrefix": "0812"
      },
      {
        "name": "仁和区",
        "zipCode": "617000",
        "telPrefix": "0812"
      },
      {
        "name": "盐边县",
        "zipCode": "617100",
        "telPrefix": "0812"
      },
      {
        "name": "自贡市",
        "zipCode": "643000",
        "telPrefix": "0813"
      },
      {
        "name": "富顺县",
        "zipCode": "643200",
        "telPrefix": "0813"
      },
      {
        "name": "自流井区",
        "zipCode": "643000",
        "telPrefix": "0813"
      },
      {
        "name": "贡井区",
        "zipCode": "643100",
        "telPrefix": "0813"
      },
      {
        "name": "绵阳市",
        "zipCode": "621000",
        "telPrefix": "0816"
      },
      {
        "name": "涪城区",
        "zipCode": "621000",
        "telPrefix": "0816"
      },
      {
        "name": "三台县",
        "zipCode": "621100",
        "telPrefix": "0816"
      },
      {
        "name": "江油市",
        "zipCode": "621700",
        "telPrefix": "0816"
      },
      {
        "name": "北川羌族自治县",
        "zipCode": "622700",
        "telPrefix": "0816"
      },
      {
        "name": "梓潼县",
        "zipCode": "622100",
        "telPrefix": "0816"
      },
      {
        "name": "南充市",
        "zipCode": "637000",
        "telPrefix": "0817"
      },
      {
        "name": "高坪区",
        "zipCode": "637100",
        "telPrefix": "0817"
      },
      {
        "name": "营山县",
        "zipCode": "637700",
        "telPrefix": "0817"
      },
      {
        "name": "仪陇县",
        "zipCode": "637600",
        "telPrefix": "0817"
      },
      {
        "name": "阆中市",
        "zipCode": "637400",
        "telPrefix": "0817"
      },
      {
        "name": "顺庆区",
        "zipCode": "637500",
        "telPrefix": "0817"
      },
      {
        "name": "达州市",
        "zipCode": "635000",
        "telPrefix": "0818"
      },
      {
        "name": "通川区",
        "zipCode": "635000",
        "telPrefix": "0818"
      },
      {
        "name": "大竹县",
        "zipCode": "635100",
        "telPrefix": "0818"
      },
      {
        "name": "开江县",
        "zipCode": "636200",
        "telPrefix": "0818"
      },
      {
        "name": "宣汉县",
        "zipCode": "636100",
        "telPrefix": "0818"
      },
      {
        "name": "遂宁市",
        "zipCode": "629000",
        "telPrefix": "0825"
      },
      {
        "name": "船山区",
        "zipCode": "629000",
        "telPrefix": "0825"
      },
      {
        "name": "蓬溪县",
        "zipCode": "629100",
        "telPrefix": "0825"
      },
      {
        "name": "大英县",
        "zipCode": "629300",
        "telPrefix": "0825"
      },
      {
        "name": "广安市",
        "zipCode": "638500",
        "telPrefix": "0826"
      },
      {
        "name": "武胜县",
        "zipCode": "638400",
        "telPrefix": "0826"
      },
      {
        "name": "岳池县",
        "zipCode": "638300",
        "telPrefix": "0826"
      },
      {
        "name": "华蓥市",
        "zipCode": "638600",
        "telPrefix": "0826"
      },
      {
        "name": "巴中市",
        "zipCode": "636600",
        "telPrefix": "0827"
      },
      {
        "name": "通江县",
        "zipCode": "636700",
        "telPrefix": "0827"
      },
      {
        "name": "巴州区",
        "zipCode": "636000",
        "telPrefix": "0827"
      },
      {
        "name": "恩阳区",
        "zipCode": "636063",
        "telPrefix": "0827"
      },
      {
        "name": "泸州市",
        "zipCode": "646000",
        "telPrefix": "0830"
      },
      {
        "name": "江阳区",
        "zipCode": "646000",
        "telPrefix": "0830"
      },
      {
        "name": "泸县",
        "zipCode": "646100",
        "telPrefix": "0830"
      },
      {
        "name": "叙永县",
        "zipCode": "646400",
        "telPrefix": "0830"
      },
      {
        "name": "龙马潭区",
        "zipCode": "646600",
        "telPrefix": "0830"
      },
      {
        "name": "宜宾市",
        "zipCode": "644000",
        "telPrefix": "0831"
      },
      {
        "name": "珙县",
        "zipCode": "644500",
        "telPrefix": "0831"
      },
      {
        "name": "翠屏区",
        "zipCode": "644000",
        "telPrefix": "0831"
      },
      {
        "name": "江安县",
        "zipCode": "644200",
        "telPrefix": "0831"
      },
      {
        "name": "高县",
        "zipCode": "645100",
        "telPrefix": "0831"
      },
      {
        "name": "屏山县",
        "zipCode": "645300",
        "telPrefix": "0831"
      },
      {
        "name": "内江市",
        "zipCode": "641000",
        "telPrefix": "0832"
      },
      {
        "name": "市中区",
        "zipCode": "641000",
        "telPrefix": "0832"
      },
      {
        "name": "资中县",
        "zipCode": "641200",
        "telPrefix": "0832"
      },
      {
        "name": "威远县",
        "zipCode": "642400",
        "telPrefix": "0832"
      },
      {
        "name": "乐山市",
        "zipCode": "614000",
        "telPrefix": "0833"
      },
      {
        "name": "市中区",
        "zipCode": "614000",
        "telPrefix": "0833"
      },
      {
        "name": "峨眉山市",
        "zipCode": "614200",
        "telPrefix": "0833"
      },
      {
        "name": "金口河区",
        "zipCode": "614700",
        "telPrefix": "0833"
      },
      {
        "name": "井研县",
        "zipCode": "613100",
        "telPrefix": "0833"
      },
      {
        "name": "沐川县",
        "zipCode": "614500",
        "telPrefix": "0833"
      },
      {
        "name": "马边彝族自治县",
        "zipCode": "614600",
        "telPrefix": "0833"
      },
      {
        "name": "雅安市",
        "zipCode": "625000",
        "telPrefix": "0835"
      },
      {
        "name": "石棉县",
        "zipCode": "625400",
        "telPrefix": "0835"
      },
      {
        "name": "芦山县",
        "zipCode": "625600",
        "telPrefix": "0835"
      },
      {
        "name": "雨城区",
        "zipCode": "625000",
        "telPrefix": "0835"
      },
      {
        "name": "荥经县",
        "zipCode": "625200",
        "telPrefix": "0835"
      },
      {
        "name": "德阳市",
        "zipCode": "618000",
        "telPrefix": "0838"
      },
      {
        "name": "旌阳区",
        "zipCode": "618000",
        "telPrefix": "0838"
      },
      {
        "name": "罗江县",
        "zipCode": "618500",
        "telPrefix": "0838"
      },
      {
        "name": "什邡市",
        "zipCode": "618400",
        "telPrefix": "0838"
      },
      {
        "name": "广元市",
        "zipCode": "628000",
        "telPrefix": "0839"
      },
      {
        "name": "苍溪县",
        "zipCode": "628400",
        "telPrefix": "0839"
      },
      {
        "name": "昭化区",
        "zipCode": "628000",
        "telPrefix": "0839"
      },
      {
        "name": "旺苍县",
        "zipCode": "628200",
        "telPrefix": "0839"
      },
      {
        "name": "剑阁县",
        "zipCode": "628300",
        "telPrefix": "0839"
      },
      {
        "name": "甘孜藏族自治州",
        "zipCode": "626000",
        "telPrefix": "0836"
      },
      {
        "name": "康定市",
        "zipCode": "626000",
        "telPrefix": "0836"
      },
      {
        "name": "丹巴县",
        "zipCode": "626300",
        "telPrefix": "0836"
      },
      {
        "name": "炉霍县",
        "zipCode": "626500",
        "telPrefix": "0836"
      },
      {
        "name": "新龙县",
        "zipCode": "626800",
        "telPrefix": "0836"
      },
      {
        "name": "巴塘县",
        "zipCode": "627600",
        "telPrefix": "0836"
      },
      {
        "name": "稻城县",
        "zipCode": "627700",
        "telPrefix": "0836"
      },
      {
        "name": "德格县",
        "zipCode": "627200",
        "telPrefix": "0836"
      },
      {
        "name": "理塘县",
        "zipCode": "627500",
        "telPrefix": "0836"
      },
      {
        "name": "乡城县",
        "zipCode": "627800",
        "telPrefix": "0836"
      },
      {
        "name": "阿坝藏族羌族自治州",
        "zipCode": "624000",
        "telPrefix": "0837"
      },
      {
        "name": "壤塘县",
        "zipCode": "624300",
        "telPrefix": "0837"
      },
      {
        "name": "若尔盖县",
        "zipCode": "624500",
        "telPrefix": "0837"
      },
      {
        "name": "汶川县",
        "zipCode": "623000",
        "telPrefix": "0837"
      },
      {
        "name": "茂县",
        "zipCode": "623200",
        "telPrefix": "0837"
      },
      {
        "name": "九寨沟县",
        "zipCode": "623400",
        "telPrefix": "0837"
      },
      {
        "name": "小金县",
        "zipCode": "624200",
        "telPrefix": "0837"
      },
      {
        "name": "马尔康市",
        "zipCode": "624000",
        "telPrefix": "0837"
      },
      {
        "name": "凉山彝族自治州",
        "zipCode": "615000",
        "telPrefix": "0834"
      },
      {
        "name": "西昌市",
        "zipCode": "615000",
        "telPrefix": "0834"
      },
      {
        "name": "盐源县",
        "zipCode": "615700",
        "telPrefix": "0834"
      },
      {
        "name": "会理县",
        "zipCode": "615100",
        "telPrefix": "0834"
      },
      {
        "name": "宁南县",
        "zipCode": "615400",
        "telPrefix": "0834"
      },
      {
        "name": "冕宁县",
        "zipCode": "615600",
        "telPrefix": "0834"
      },
      {
        "name": "甘洛县",
        "zipCode": "616800",
        "telPrefix": "0834"
      },
      {
        "name": "雷波县",
        "zipCode": "616500",
        "telPrefix": "0834"
      },
      {
        "name": "喜德县",
        "zipCode": "616700",
        "telPrefix": "0834"
      },
      {
        "name": "昭觉县",
        "zipCode": "616100",
        "telPrefix": "0834"
      }
    ]
  ],
  [
    "贵州省",
    [
      {
        "name": "贵阳市",
        "zipCode": "550000",
        "telPrefix": "0851"
      },
      {
        "name": "南明区",
        "zipCode": "550000",
        "telPrefix": "0851"
      },
      {
        "name": "花溪区",
        "zipCode": "550000",
        "telPrefix": "0851"
      },
      {
        "name": "白云区",
        "zipCode": "550000",
        "telPrefix": "0851"
      },
      {
        "name": "开阳县",
        "zipCode": "550300",
        "telPrefix": "0851"
      },
      {
        "name": "修文县",
        "zipCode": "550200",
        "telPrefix": "0851"
      },
      {
        "name": "观山湖区",
        "zipCode": "550081",
        "telPrefix": "0851"
      },
      {
        "name": "遵义市",
        "zipCode": "563000",
        "telPrefix": "0851"
      },
      {
        "name": "红花岗区",
        "zipCode": "563000",
        "telPrefix": "0851"
      },
      {
        "name": "播州区",
        "zipCode": "563100",
        "telPrefix": "0852"
      },
      {
        "name": "绥阳县",
        "zipCode": "563300",
        "telPrefix": "0851"
      },
      {
        "name": "道真仡佬族苗族自治县",
        "zipCode": "563500",
        "telPrefix": "0851"
      },
      {
        "name": "凤冈县",
        "zipCode": "564200",
        "telPrefix": "0851"
      },
      {
        "name": "余庆县",
        "zipCode": "564400",
        "telPrefix": "0851"
      },
      {
        "name": "赤水市",
        "zipCode": "564700",
        "telPrefix": "0851"
      },
      {
        "name": "安顺市",
        "zipCode": "561000",
        "telPrefix": "0851"
      },
      {
        "name": "西秀区",
        "zipCode": "561000",
        "telPrefix": "0851"
      },
      {
        "name": "普定县",
        "zipCode": "562100",
        "telPrefix": "0851"
      },
      {
        "name": "关岭布依族苗族自治县",
        "zipCode": "561300",
        "telPrefix": "0851"
      },
      {
        "name": "铜仁市",
        "zipCode": "554300",
        "telPrefix": "0856"
      },
      {
        "name": "碧江区",
        "zipCode": "554300",
        "telPrefix": "0856"
      },
      {
        "name": "玉屏侗族自治县",
        "zipCode": "554000",
        "telPrefix": "0856"
      },
      {
        "name": "思南县",
        "zipCode": "565100",
        "telPrefix": "0856"
      },
      {
        "name": "德江县",
        "zipCode": "565200",
        "telPrefix": "0856"
      },
      {
        "name": "松桃苗族自治县",
        "zipCode": "554100",
        "telPrefix": "0856"
      },
      {
        "name": "毕节市",
        "zipCode": "551700",
        "telPrefix": "0857"
      },
      {
        "name": "织金县",
        "zipCode": "552100",
        "telPrefix": "0857"
      },
      {
        "name": "威宁彝族回族苗族自治县",
        "zipCode": "553100",
        "telPrefix": "0857"
      },
      {
        "name": "七星关区",
        "zipCode": "551700",
        "telPrefix": "0857"
      },
      {
        "name": "黔西县",
        "zipCode": "551500",
        "telPrefix": "0857"
      },
      {
        "name": "六盘水市",
        "zipCode": "553000",
        "telPrefix": "0858"
      },
      {
        "name": "盘州市",
        "zipCode": "561601",
        "telPrefix": "0858"
      },
      {
        "name": "六枝特区",
        "zipCode": "553400",
        "telPrefix": "0858"
      },
      {
        "name": "黔西南布依族苗族自治州",
        "zipCode": "562400",
        "telPrefix": "0859"
      },
      {
        "name": "安龙县",
        "zipCode": "552400",
        "telPrefix": "0859"
      },
      {
        "name": "册亨县",
        "zipCode": "552200",
        "telPrefix": "0859"
      },
      {
        "name": "兴仁县",
        "zipCode": "562300",
        "telPrefix": "0859"
      },
      {
        "name": "晴隆县",
        "zipCode": "561400",
        "telPrefix": "0859"
      },
      {
        "name": "黔南布依族苗族自治州",
        "zipCode": "558000",
        "telPrefix": "0854"
      },
      {
        "name": "都匀市",
        "zipCode": "558000",
        "telPrefix": "0854"
      },
      {
        "name": "荔波县",
        "zipCode": "558400",
        "telPrefix": "0854"
      },
      {
        "name": "瓮安县",
        "zipCode": "550400",
        "telPrefix": "0854"
      },
      {
        "name": "平塘县",
        "zipCode": "558300",
        "telPrefix": "0854"
      },
      {
        "name": "长顺县",
        "zipCode": "550700",
        "telPrefix": "0854"
      },
      {
        "name": "惠水县",
        "zipCode": "550600",
        "telPrefix": "0854"
      },
      {
        "name": "黔东南苗族侗族自治州",
        "zipCode": "556000",
        "telPrefix": "0855"
      },
      {
        "name": "丹寨县",
        "zipCode": "557500",
        "telPrefix": "0855"
      },
      {
        "name": "从江县",
        "zipCode": "557400",
        "telPrefix": "0855"
      },
      {
        "name": "麻江县",
        "zipCode": "557600",
        "telPrefix": "0855"
      },
      {
        "name": "镇远县",
        "zipCode": "557700",
        "telPrefix": "0855"
      },
      {
        "name": "天柱县",
        "zipCode": "556600",
        "telPrefix": "0855"
      },
      {
        "name": "剑河县",
        "zipCode": "556400",
        "telPrefix": "0855"
      },
      {
        "name": "黎平县",
        "zipCode": "557300",
        "telPrefix": "0855"
      },
      {
        "name": "黄平县",
        "zipCode": "556100",
        "telPrefix": "0855"
      }
    ]
  ],
  [
    "云南省",
    []
  ],
  [
    "西藏自治区",
    []
  ],
  [
    "陕西省",
    []
  ],
  [
    "甘肃省",
    [
      {
        "name": "兰州市",
        "zipCode": "730000",
        "telPrefix": "0931"
      },
      {
        "name": "城关区",
        "zipCode": "730030",
        "telPrefix": "0931"
      },
      {
        "name": "西固区",
        "zipCode": "730060",
        "telPrefix": "0931"
      },
      {
        "name": "红古区",
        "zipCode": "730080",
        "telPrefix": "0931"
      },
      {
        "name": "皋兰县",
        "zipCode": "730200",
        "telPrefix": "0931"
      },
      {
        "name": "定西市",
        "zipCode": "743000",
        "telPrefix": "0932"
      },
      {
        "name": "通渭县",
        "zipCode": "743300",
        "telPrefix": "0932"
      },
      {
        "name": "渭源县",
        "zipCode": "748200",
        "telPrefix": "0932"
      },
      {
        "name": "漳县",
        "zipCode": "748300",
        "telPrefix": "0932"
      },
      {
        "name": "安定区",
        "zipCode": "743000",
        "telPrefix": "0932"
      },
      {
        "name": "平凉市",
        "zipCode": "744000",
        "telPrefix": "0933"
      },
      {
        "name": "崆峒区",
        "zipCode": "744000",
        "telPrefix": "0933"
      },
      {
        "name": "灵台县",
        "zipCode": "744400",
        "telPrefix": "0933"
      },
      {
        "name": "华亭县",
        "zipCode": "744100",
        "telPrefix": "0933"
      },
      {
        "name": "静宁县",
        "zipCode": "743400",
        "telPrefix": "0933"
      },
      {
        "name": "庆阳市",
        "zipCode": "745000",
        "telPrefix": "0934"
      },
      {
        "name": "宁县",
        "zipCode": "745200",
        "telPrefix": "0934"
      },
      {
        "name": "环县",
        "zipCode": "745700",
        "telPrefix": "0934"
      },
      {
        "name": "合水县",
        "zipCode": "745400",
        "telPrefix": "0934"
      },
      {
        "name": "西峰区",
        "zipCode": "745000",
        "telPrefix": "0934"
      },
      {
        "name": "武威市",
        "zipCode": "733000",
        "telPrefix": "0935"
      },
      {
        "name": "凉州区",
        "zipCode": "733000",
        "telPrefix": "0935"
      },
      {
        "name": "古浪县",
        "zipCode": "733100",
        "telPrefix": "0935"
      },
      {
        "name": "金昌市",
        "zipCode": "737100",
        "telPrefix": "0935"
      },
      {
        "name": "金川区",
        "zipCode": "737100",
        "telPrefix": "0935"
      },
      {
        "name": "张掖市",
        "zipCode": "734000",
        "telPrefix": "0936"
      },
      {
        "name": "甘州区",
        "zipCode": "734000",
        "telPrefix": "0936"
      },
      {
        "name": "肃南裕固族自治县",
        "zipCode": "734400",
        "telPrefix": "0936"
      },
      {
        "name": "临泽县",
        "zipCode": "734200",
        "telPrefix": "0936"
      },
      {
        "name": "萧南",
        "zipCode": "734400",
        "telPrefix": "0936"
      },
      {
        "name": "酒泉市",
        "zipCode": "735000",
        "telPrefix": "0937"
      },
      {
        "name": "肃州区",
        "zipCode": "735000",
        "telPrefix": "0937"
      },
      {
        "name": "敦煌市",
        "zipCode": "736200",
        "telPrefix": "0937"
      },
      {
        "name": "肃北蒙古族自治县",
        "zipCode": "736300",
        "telPrefix": "0937"
      },
      {
        "name": "玉门市",
        "zipCode": "735200",
        "telPrefix": "0937"
      },
      {
        "name": "嘉峪关市",
        "zipCode": "735100",
        "telPrefix": "0937"
      },
      {
        "name": "天水市",
        "zipCode": "741000",
        "telPrefix": "0938"
      },
      {
        "name": "张家川回族自治县",
        "zipCode": "741500",
        "telPrefix": "0938"
      },
      {
        "name": "清水县",
        "zipCode": "741400",
        "telPrefix": "0938"
      },
      {
        "name": "甘谷县",
        "zipCode": "741200",
        "telPrefix": "0938"
      },
      {
        "name": "麦积区",
        "zipCode": "741000",
        "telPrefix": "0938"
      },
      {
        "name": "陇南市",
        "zipCode": "742500",
        "telPrefix": "0939"
      },
      {
        "name": "武都区",
        "zipCode": "746000",
        "telPrefix": "0939"
      },
      {
        "name": "文县",
        "zipCode": "746400",
        "telPrefix": "0939"
      },
      {
        "name": "康县",
        "zipCode": "746500",
        "telPrefix": "0939"
      },
      {
        "name": "礼县",
        "zipCode": "742200",
        "telPrefix": "0939"
      },
      {
        "name": "两当县",
        "zipCode": "742400",
        "telPrefix": "0939"
      },
      {
        "name": "白银市",
        "zipCode": "730900",
        "telPrefix": "0943"
      },
      {
        "name": "景泰县",
        "zipCode": "730400",
        "telPrefix": "0943"
      },
      {
        "name": "平川区",
        "zipCode": "730900",
        "telPrefix": "0943"
      },
      {
        "name": "会宁县",
        "zipCode": "730700",
        "telPrefix": "0943"
      },
      {
        "name": "临夏回族自治州",
        "zipCode": "731100",
        "telPrefix": "0930"
      },
      {
        "name": "临夏市",
        "zipCode": "731100",
        "telPrefix": "0930"
      },
      {
        "name": "康乐县",
        "zipCode": "731500",
        "telPrefix": "0930"
      },
      {
        "name": "广河县",
        "zipCode": "731300",
        "telPrefix": "0930"
      },
      {
        "name": "东乡族自治县",
        "zipCode": "731400",
        "telPrefix": "0930"
      },
      {
        "name": "甘南藏族自治州",
        "zipCode": "747000",
        "telPrefix": "0941"
      },
      {
        "name": "合作市",
        "zipCode": "747000",
        "telPrefix": "0941"
      },
      {
        "name": "卓尼县",
        "zipCode": "747600",
        "telPrefix": "0941"
      },
      {
        "name": "迭部县",
        "zipCode": "747400",
        "telPrefix": "0941"
      },
      {
        "name": "碌曲县",
        "zipCode": "747200",
        "telPrefix": "0941"
      },
      {
        "name": "甘南州",
        "zipCode": "747000",
        "telPrefix": "0941"
      }
    ]
  ],
  [
    "青海省",
    [
      {
        "name": "西宁市",
        "zipCode": "810000",
        "telPrefix": "0971"
      },
      {
        "name": "城东区",
        "zipCode": "810000",
        "telPrefix": "0971"
      },
      {
        "name": "城西区",
        "zipCode": "810000",
        "telPrefix": "0971"
      },
      {
        "name": "大通回族土族自治县",
        "zipCode": "810100",
        "telPrefix": "0971"
      },
      {
        "name": "湟中县",
        "zipCode": "811600",
        "telPrefix": "0972"
      },
      {
        "name": "海东市",
        "zipCode": "810600",
        "telPrefix": "0972"
      },
      {
        "name": "平安区",
        "zipCode": "810600",
        "telPrefix": "0972"
      },
      {
        "name": "乐都区",
        "zipCode": "810700",
        "telPrefix": "0972"
      },
      {
        "name": "化隆回族自治县",
        "zipCode": "810900",
        "telPrefix": "0972"
      },
      {
        "name": "黄南藏族自治州",
        "zipCode": "811300",
        "telPrefix": "0973"
      },
      {
        "name": "同仁县",
        "zipCode": "811300",
        "telPrefix": "0973"
      },
      {
        "name": "泽库县",
        "zipCode": "811400",
        "telPrefix": "0973"
      },
      {
        "name": "海南藏族自治州",
        "zipCode": "813000",
        "telPrefix": "0974"
      },
      {
        "name": "共和县",
        "zipCode": "813000",
        "telPrefix": "0974"
      },
      {
        "name": "贵德县",
        "zipCode": "811700",
        "telPrefix": "0974"
      },
      {
        "name": "贵南县",
        "zipCode": "813100",
        "telPrefix": "0974"
      },
      {
        "name": "果洛藏族自治州",
        "zipCode": "814000",
        "telPrefix": "0975"
      },
      {
        "name": "玛沁县",
        "zipCode": "814000",
        "telPrefix": "0975"
      },
      {
        "name": "甘德县",
        "zipCode": "814100",
        "telPrefix": "0975"
      },
      {
        "name": "久治县",
        "zipCode": "624700",
        "telPrefix": "0975"
      },
      {
        "name": "玉树藏族自治州",
        "zipCode": "815000",
        "telPrefix": "0976"
      },
      {
        "name": "玉树市",
        "zipCode": "815000",
        "telPrefix": "0976"
      },
      {
        "name": "称多县",
        "zipCode": "815100",
        "telPrefix": "0976"
      },
      {
        "name": "囊谦县",
        "zipCode": "815200",
        "telPrefix": "0976"
      },
      {
        "name": "海西蒙古族藏族自治州",
        "zipCode": "817000",
        "telPrefix": "0977"
      },
      {
        "name": "德令哈市",
        "zipCode": "817000",
        "telPrefix": "0977"
      },
      {
        "name": "天峻县",
        "zipCode": "817200",
        "telPrefix": "0977"
      },
      {
        "name": "乌兰县",
        "zipCode": "817100",
        "telPrefix": "0977"
      },
      {
        "name": "大柴旦行政区",
        "zipCode": "817300",
        "telPrefix": "0977"
      },
      {
        "name": "海北藏族自治州",
        "zipCode": "812200",
        "telPrefix": "0970"
      },
      {
        "name": "门源回族自治县",
        "zipCode": "810300",
        "telPrefix": "0970"
      },
      {
        "name": "海晏县",
        "zipCode": "812200",
        "telPrefix": "0970"
      }
    ]
  ],
  [
    "宁夏回族自治区",
    [
      {
        "name": "银川市",
        "zipCode": "750000",
        "telPrefix": "0951"
      },
      {
        "name": "兴庆区",
        "zipCode": "750000",
        "telPrefix": "0951"
      },
      {
        "name": "金凤区",
        "zipCode": "750000",
        "telPrefix": "0951"
      },
      {
        "name": "贺兰县",
        "zipCode": "750200",
        "telPrefix": "0951"
      },
      {
        "name": "石嘴山市",
        "zipCode": "753000",
        "telPrefix": "0952"
      },
      {
        "name": "大武口区",
        "zipCode": "753000",
        "telPrefix": "0952"
      },
      {
        "name": "惠农区",
        "zipCode": "753200",
        "telPrefix": "0952"
      },
      {
        "name": "吴忠市",
        "zipCode": "751100",
        "telPrefix": "0953"
      },
      {
        "name": "利通区",
        "zipCode": "751100",
        "telPrefix": "0953"
      },
      {
        "name": "同心县",
        "zipCode": "751300",
        "telPrefix": "0953"
      },
      {
        "name": "红寺堡区",
        "zipCode": "751900",
        "telPrefix": "0953"
      },
      {
        "name": "固原市",
        "zipCode": "756000",
        "telPrefix": "0954"
      },
      {
        "name": "原州区",
        "zipCode": "756000",
        "telPrefix": "0954"
      },
      {
        "name": "隆德县",
        "zipCode": "756300",
        "telPrefix": "0954"
      },
      {
        "name": "彭阳县",
        "zipCode": "756500",
        "telPrefix": "0954"
      },
      {
        "name": "中卫市",
        "zipCode": "755000",
        "telPrefix": "0955"
      },
      {
        "name": "沙坡头区",
        "zipCode": "755000",
        "telPrefix": "0955"
      },
      {
        "name": "海原县",
        "zipCode": "755200",
        "telPrefix": "0955"
      }
    ]
  ],
  [
    "新疆维吾尔自治区",
    []
  ],
  [
    "香港特别行政区",
    [
      {
        "name": "北区",
        "zipCode": "999077",
        "telPrefix": "00852"
      },
      {
        "name": "南区",
        "zipCode": "999077",
        "telPrefix": "00852"
      },
      {
        "name": "深水埗区",
        "zipCode": "999077",
        "telPrefix": "00852"
      },
      {
        "name": "黄大仙区",
        "zipCode": "999077",
        "telPrefix": "00852"
      },
      {
        "name": "中西区",
        "zipCode": "999077",
        "telPrefix": "00852"
      },
      {
        "name": "大埔区",
        "zipCode": "999077",
        "telPrefix": "00852"
      },
      {
        "name": "西贡区",
        "zipCode": "999077",
        "telPrefix": "00852"
      },
      {
        "name": "屯门区",
        "zipCode": "999077",
        "telPrefix": "00852"
      },
      {
        "name": "葵青区",
        "zipCode": "999077",
        "telPrefix": "00852"
      }
    ]
  ],
  [
    "澳门特别行政区",
    [
      {
        "name": "大堂区",
        "zipCode": "999078",
        "telPrefix": "00853"
      },
      {
        "name": "花地玛堂区",
        "zipCode": "999078",
        "telPrefix": "00853"
      },
      {
        "name": "望德堂区",
        "zipCode": "999078",
        "telPrefix": "00853"
      },
      {
        "name": "嘉模堂区",
        "zipCode": "999078",
        "telPrefix": "00853"
      }
    ]
  ],
  [
    "台湾省",
    []
  ]
]